{"type":"FeatureCollection","features":[{"type":"Feature","id":1,"geometry":{"type":"Polygon","coordinates":[[[-91.967955,30.037991],[-91.987731,29.990284],[-91.988554,29.988297],[-91.988834,29.988144],[-91.988932,29.988187],[-91.989063,29.988151],[-91.989227,29.988023],[-91.989644,29.987809],[-91.989841,29.987767],[-91.990029,29.987531],[-91.990242,29.987389],[-91.990389,29.987189],[-91.990291,29.987011],[-91.990373,29.986968],[-91.990463,29.986997],[-91.990529,29.986869],[-91.990529,29.986776],[-91.99057,29.986698],[-91.990864,29.986555],[-91.990954,29.986555],[-91.991033,29.986507],[-91.991187,29.986326],[-91.991331,29.986135],[-91.991438,29.985935],[-91.991609,29.985757],[-91.992003,29.985686],[-91.992158,29.985507],[-91.992273,29.985408],[-91.992756,29.985258],[-91.99301,29.985073],[-91.993083,29.984973],[-91.993145,29.984763],[-91.993263,29.984664],[-91.993251,29.984542],[-91.993313,29.984457],[-91.993664,29.98419],[-91.993702,29.984116],[-91.99369,29.984053],[-91.993683,29.983927],[-91.9937,29.983798],[-91.993768,29.983581],[-91.993812,29.98348],[-91.993726,29.983427],[-91.993824,29.983092],[-91.99389,29.982839],[-91.993996,29.982746],[-91.993992,29.982654],[-91.99396,29.982579],[-91.993898,29.982515],[-91.993956,29.982418],[-91.993919,29.98234],[-91.993849,29.982094],[-91.993771,29.98198],[-91.993874,29.981795],[-91.993902,29.981698],[-91.993939,29.981624],[-91.993906,29.981592],[-91.993943,29.981438],[-91.993902,29.981363],[-91.993923,29.98126],[-91.993954,29.980943],[-91.993992,29.980911],[-91.993972,29.980811],[-91.993947,29.980633],[-91.993915,29.980554],[-91.993901,29.980366],[-91.993956,29.980081],[-91.994057,29.979703],[-91.994051,29.979603],[-91.99401,29.979544],[-91.993942,29.97942],[-91.993888,29.979249],[-91.993877,29.979121],[-91.993888,29.979031],[-91.993879,29.978945],[-91.993855,29.978831],[-91.993838,29.978784],[-91.993828,29.978655],[-91.993814,29.978572],[-91.993824,29.97848],[-91.993822,29.978385],[-91.993868,29.978299],[-91.993844,29.978235],[-91.993828,29.978057],[-91.99383,29.97795],[-91.993817,29.977909],[-91.993822,29.977876],[-91.993901,29.977813],[-91.993986,29.977517],[-91.99396,29.97749],[-91.994032,29.977339],[-91.994039,29.977123],[-91.994083,29.976593],[-91.994001,29.976396],[-91.993975,29.976143],[-91.994006,29.976002],[-91.993988,29.975938],[-91.99397,29.975812],[-91.993876,29.975696],[-91.993883,29.975653],[-91.99376,29.975353],[-91.993808,29.975198],[-91.993902,29.975038],[-91.99387,29.974924],[-91.993805,29.974774],[-91.993813,29.974656],[-91.993743,29.974517],[-91.993743,29.974435],[-91.99367,29.974354],[-91.993608,29.974346],[-91.993514,29.974157],[-91.993428,29.974046],[-91.993329,29.973431],[-91.993243,29.973356],[-91.99308,29.973027],[-91.992999,29.972679],[-91.992929,29.972136],[-91.992519,29.97143],[-91.992397,29.971303],[-91.992369,29.971225],[-91.99231,29.971168],[-91.992071,29.970855],[-91.988494,29.954784],[-91.988466,29.94322],[-91.988306,29.938825],[-91.971963,29.832303],[-92.00013,29.613378],[-92.001091,29.612482],[-92.00332,29.610367],[-92.006203,29.608339],[-92.006454,29.608163],[-92.007434,29.606379],[-92.00829,29.603405],[-92.008641,29.600346],[-92.009771,29.5984],[-92.012979,29.596043],[-92.017299,29.594026],[-92.019505,29.592978],[-92.020829,29.59172],[-92.022102,29.589258],[-92.023197,29.587191],[-92.025394,29.585391],[-92.029156,29.584437],[-92.031165,29.584465],[-92.03193,29.584475],[-92.033981,29.584879],[-92.036502,29.58523],[-92.038624,29.585053],[-92.040565,29.583008],[-92.041235,29.581518],[-92.042003,29.579812],[-92.042898,29.578139],[-92.042902,29.577004],[-92.042902,29.57695],[-92.042912,29.574532],[-92.042925,29.571466],[-92.043132,29.521669],[-92.045622,29.505811],[-92.045168,29.502675],[-92.044384,29.49933],[-92.043074,29.495345],[-92.041055,29.490518],[-92.038824,29.486978],[-92.036535,29.483347],[-92.029856,29.475966],[-92.02276,29.470641],[-92.016359,29.46689],[-92.007314,29.46338],[-91.999661,29.461686],[-91.991653,29.460718],[-91.983873,29.460718],[-91.980723,29.455054],[-91.976184,29.449126],[-91.970772,29.444109],[-91.964837,29.439397],[-91.958029,29.435901],[-91.951744,29.433317],[-91.945459,29.431341],[-91.938302,29.430277],[-91.933399,29.429779],[-91.928108,29.426533],[-91.921248,29.423287],[-91.913213,29.420212],[-91.913409,29.41389],[-91.913017,29.40569],[-91.910666,29.396122],[-91.906354,29.387409],[-91.897658,29.375224],[-91.896425,29.374097],[-91.889696,29.368958],[-91.882442,29.36519],[-91.876918,29.362694],[-91.875038,29.361997],[-91.868731,29.36032],[-91.859849,29.358947],[-91.849392,29.359071],[-91.84094,29.360195],[-91.832774,29.362567],[-91.823033,29.366312],[-91.816013,29.370307],[-91.80971,29.375176],[-91.80808,29.376546],[-91.804397,29.377803],[-91.797832,29.380176],[-91.793189,29.382549],[-91.789025,29.38548],[-91.784382,29.389109],[-91.780539,29.392739],[-91.777496,29.396089],[-91.773493,29.392599],[-91.767889,29.388551],[-91.762925,29.385759],[-91.749314,29.380874],[-91.749048,29.380713],[-91.745474,29.376847],[-91.741777,29.37341],[-91.736724,29.369652],[-91.729699,29.365893],[-91.723414,29.363423],[-91.717992,29.361813],[-91.712199,29.360631],[-91.70653,29.360202],[-91.699999,29.360094],[-91.69433,29.360631],[-91.688907,29.361598],[-91.685211,29.362565],[-91.679912,29.364284],[-91.674859,29.366324],[-91.669683,29.369224],[-91.665739,29.372016],[-91.662535,29.374593],[-91.656989,29.374378],[-91.65243,29.374593],[-91.645663,29.375494],[-91.64405,29.37556],[-91.640353,29.372445],[-91.635424,29.369116],[-91.630494,29.366217],[-91.624702,29.363854],[-91.619279,29.362029],[-91.613241,29.360633],[-91.606463,29.359988],[-91.600177,29.359774],[-91.594262,29.360311],[-91.59187,29.35938],[-91.591399,29.375223],[-91.591372,29.405958],[-91.591356,29.423501],[-91.591317,29.466658],[-91.591272,29.50022],[-91.591306,29.507706],[-91.592491,29.509102],[-91.592506,29.50912],[-91.592598,29.509229],[-91.592684,29.509331],[-91.592853,29.509529],[-91.593098,29.509818],[-91.605464,29.524413],[-91.625121,29.547612],[-91.62695,29.549706],[-91.656956,29.584039],[-91.657559,29.584729],[-91.679011,29.609361],[-91.679147,29.609517],[-91.679283,29.609674],[-91.679738,29.610196],[-91.685772,29.617125],[-91.692819,29.625217],[-91.72326,29.661302],[-91.750123,29.662577],[-91.787765,29.664418],[-91.82516,29.665943],[-91.875126,29.66789],[-91.886525,29.668312],[-91.899928,29.66885],[-91.910248,29.669265],[-91.932698,29.670572],[-91.934997,29.671066],[-91.935292,29.671944],[-91.935168,29.672583],[-91.920089,29.685086],[-91.88945,29.710855],[-91.875126,29.72275],[-91.856469,29.737754],[-91.853882,29.739685],[-91.853814,29.739732],[-91.853517,29.739938],[-91.853121,29.740212],[-91.847712,29.744935],[-91.841383,29.749777],[-91.840817,29.750213],[-91.837614,29.752583],[-91.832828,29.756127],[-91.831671,29.756983],[-91.830633,29.75775],[-91.801046,29.779655],[-91.800706,29.779906],[-91.800427,29.780113],[-91.783832,29.792398],[-91.783599,29.79257],[-91.750122,29.817358],[-91.749609,29.817702],[-91.737548,29.826599],[-91.732898,29.830028],[-91.717293,29.841541],[-91.712559,29.845033],[-91.711155,29.84607],[-91.705465,29.852541],[-91.699534,29.859284],[-91.697086,29.86207],[-91.691165,29.868811],[-91.691113,29.86887],[-91.690484,29.869579],[-91.687067,29.873553],[-91.685435,29.875208],[-91.682398,29.878686],[-91.680745,29.880579],[-91.675292,29.886831],[-91.675169,29.886975],[-91.675139,29.887011],[-91.674941,29.887235],[-91.674773,29.887426],[-91.672251,29.890313],[-91.672202,29.890369],[-91.67218,29.890443],[-91.672131,29.890518],[-91.672099,29.890568],[-91.672079,29.890592],[-91.671815,29.890909],[-91.671721,29.891015],[-91.670035,29.892922],[-91.665808,29.89775],[-91.664177,29.899597],[-91.664137,29.899643],[-91.664028,29.899768],[-91.66184,29.902251],[-91.661767,29.902334],[-91.661553,29.902577],[-91.661442,29.902727],[-91.661325,29.902754],[-91.661015,29.9031],[-91.660659,29.903513],[-91.660622,29.903556],[-91.66044,29.903766],[-91.660402,29.903809],[-91.660041,29.904221],[-91.659517,29.90482],[-91.658991,29.905423],[-91.658889,29.905537],[-91.65868,29.90577],[-91.658178,29.906328],[-91.65802,29.906532],[-91.657782,29.906786],[-91.657094,29.907564],[-91.656931,29.907761],[-91.656848,29.907861],[-91.656737,29.908003],[-91.656625,29.908144],[-91.656563,29.908188],[-91.656501,29.908232],[-91.656408,29.908338],[-91.655096,29.909847],[-91.654108,29.910982],[-91.653255,29.911999],[-91.652023,29.913324],[-91.651512,29.913951],[-91.650754,29.914726],[-91.649781,29.915865],[-91.649276,29.916475],[-91.648638,29.917239],[-91.647797,29.918158],[-91.646439,29.919769],[-91.643925,29.922689],[-91.641821,29.925158],[-91.636615,29.931184],[-91.632577,29.935995],[-91.632578,29.936088],[-91.632549,29.936121],[-91.632326,29.936375],[-91.625118,29.944564],[-91.624715,29.94528],[-91.618864,29.9457],[-91.616568,29.945863],[-91.614271,29.946027],[-91.614214,29.946031],[-91.613203,29.946106],[-91.612171,29.946182],[-91.612135,29.946185],[-91.591849,29.947644],[-91.571576,29.949095],[-91.571557,29.949103],[-91.561253,29.949845],[-91.551181,29.95057],[-91.550943,29.950587],[-91.550747,29.950601],[-91.549832,29.950666],[-91.549531,29.950688],[-91.549476,29.950692],[-91.549108,29.950718],[-91.547895,29.950805],[-91.540314,29.95135],[-91.535052,29.951729],[-91.531736,29.951967],[-91.530348,29.952066],[-91.527032,29.952304],[-91.521072,29.952732],[-91.519539,29.952794],[-91.51652,29.953019],[-91.515054,29.953128],[-91.510707,29.953452],[-91.509855,29.953547],[-91.508581,29.953638],[-91.506907,29.953757],[-91.506083,29.953815],[-91.504733,29.953911],[-91.500119,29.954243],[-91.49364,29.954453],[-91.487237,29.954908],[-91.485539,29.955028],[-91.479567,29.955452],[-91.478656,29.955517],[-91.477578,29.955593],[-91.47696,29.955639],[-91.471957,29.955994],[-91.471938,29.955995],[-91.471927,29.955996],[-91.471205,29.956047],[-91.465775,29.956434],[-91.462296,29.956681],[-91.449404,29.957597],[-91.4458,29.957853],[-91.441309,29.958172],[-91.435824,29.958562],[-91.434078,29.958686],[-91.432147,29.958823],[-91.428273,29.959099],[-91.423804,29.959416],[-91.417018,29.959899],[-91.414802,29.960056],[-91.413564,29.960144],[-91.399902,29.961137],[-91.395714,29.961431],[-91.395135,29.961471],[-91.393791,29.961565],[-91.389411,29.961873],[-91.382558,29.962391],[-91.375587,29.96285],[-91.375115,29.962882],[-91.374463,29.963094],[-91.371695,29.963285],[-91.370932,29.963354],[-91.368511,29.963516],[-91.366695,29.963608],[-91.363274,29.963861],[-91.355844,29.964382],[-91.352524,29.964615],[-91.348574,29.964892],[-91.335456,29.965838],[-91.331448,29.966118],[-91.331034,29.966182],[-91.327639,29.966435],[-91.327025,29.966477],[-91.322367,29.9668],[-91.320007,29.967008],[-91.314754,29.967333],[-91.306979,29.967878],[-91.305189,29.96797],[-91.302009,29.968232],[-91.295662,29.968679],[-91.292146,29.968895],[-91.288527,29.969147],[-91.285143,29.969382],[-91.279038,29.969806],[-91.27297,29.970228],[-91.269615,29.970461],[-91.265668,29.970736],[-91.263938,29.970857],[-91.262299,29.970965],[-91.262136,29.970976],[-91.256529,29.971372],[-91.255235,29.971462],[-91.254814,29.97176],[-91.254524,29.972103],[-91.254498,29.972401],[-91.254524,29.972516],[-91.255182,29.97318],[-91.255181,29.973639],[-91.255418,29.974028],[-91.255523,29.97412],[-91.255576,29.974212],[-91.255839,29.97451],[-91.255865,29.974647],[-91.255997,29.974808],[-91.255997,29.974922],[-91.256075,29.974991],[-91.25618,29.975541],[-91.256548,29.976916],[-91.256574,29.977466],[-91.256653,29.977627],[-91.256679,29.978337],[-91.256784,29.97836],[-91.256863,29.978864],[-91.256968,29.979277],[-91.256994,29.979689],[-91.257046,29.980079],[-91.257125,29.980125],[-91.257125,29.980262],[-91.257493,29.980629],[-91.257783,29.980904],[-91.257809,29.981042],[-91.257914,29.981156],[-91.257993,29.981615],[-91.258071,29.982463],[-91.258255,29.983104],[-91.25857,29.983861],[-91.258676,29.984296],[-91.258781,29.984365],[-91.258833,29.98464],[-91.258938,29.984732],[-91.258912,29.984869],[-91.259123,29.98503],[-91.259807,29.985259],[-91.259938,29.985603],[-91.259884,29.987986],[-91.259406,29.999902],[-91.259394,30.000205],[-91.259335,30.000268],[-91.25895,30.000679],[-91.258136,30.001049],[-91.25575,30.001336],[-91.25332,30.001334],[-91.250676,30.001177],[-91.25011,30.001152],[-91.25011,30.001104],[-91.249094,30.001036],[-91.24639,30.000542],[-91.244803,30.000205],[-91.243443,30.000205],[-91.240258,30.000205],[-91.239205,30.000205],[-91.237709,30.000205],[-91.236352,30.000899],[-91.235895,30.001133],[-91.234556,30.002983],[-91.233149,30.005495],[-91.231929,30.007645],[-91.230408,30.011011],[-91.228864,30.015168],[-91.226914,30.019195],[-91.22542,30.022529],[-91.225021,30.023588],[-91.224796,30.024187],[-91.224534,30.024883],[-91.224362,30.025341],[-91.223272,30.027273],[-91.223159,30.027543],[-91.222646,30.028763],[-91.222242,30.029887],[-91.221971,30.03064],[-91.221735,30.031744],[-91.221918,30.03777],[-91.222245,30.039046],[-91.223558,30.040794],[-91.225454,30.042278],[-91.226903,30.042622],[-91.228687,30.04254],[-91.230039,30.041908],[-91.231848,30.04039],[-91.233714,30.038638],[-91.23456,30.037697],[-91.236161,30.035025],[-91.237623,30.032635],[-91.238183,30.031427],[-91.238695,30.030525],[-91.23954,30.029738],[-91.240706,30.029355],[-91.241915,30.029537],[-91.244735,30.031112],[-91.250111,30.034983],[-91.251535,30.036182],[-91.2546,30.038603],[-91.255948,30.039781],[-91.257424,30.041548],[-91.25878,30.043129],[-91.259407,30.044177],[-91.26056,30.046007],[-91.261611,30.047548],[-91.262533,30.048814],[-91.263438,30.049774],[-91.264075,30.050806],[-91.263953,30.051741],[-91.26383,30.053304],[-91.264078,30.05415],[-91.26441,30.054981],[-91.265204,30.055707],[-91.266358,30.056651],[-91.266866,30.057256],[-91.267521,30.058119],[-91.268989,30.059265],[-91.269091,30.059313],[-91.269476,30.059311],[-91.273237,30.059298],[-91.27329,30.059298],[-91.275122,30.059291],[-91.27656,30.059286],[-91.29117,30.059238],[-91.313193,30.059144],[-91.329137,30.059109],[-91.335598,30.059096],[-91.336312,30.059032],[-91.336671,30.059],[-91.337502,30.059862],[-91.338546,30.060653],[-91.339711,30.061209],[-91.340654,30.061468],[-91.341995,30.061476],[-91.343503,30.061405],[-91.346278,30.060713],[-91.347286,30.060472],[-91.348119,30.060505],[-91.348766,30.060521],[-91.349737,30.060425],[-91.351162,30.060096],[-91.352364,30.060306],[-91.353529,30.060934],[-91.353778,30.061096],[-91.353954,30.061055],[-91.354157,30.060881],[-91.354262,30.060515],[-91.354525,30.059896],[-91.354841,30.059529],[-91.355473,30.058589],[-91.355921,30.058108],[-91.35758,30.057145],[-91.35924,30.056617],[-91.359293,30.056503],[-91.35953,30.056526],[-91.360452,30.056182],[-91.361347,30.055929],[-91.362453,30.055745],[-91.36356,30.055722],[-91.36454,30.05546],[-91.365641,30.054953],[-91.366741,30.054704],[-91.366984,30.055262],[-91.367116,30.055446],[-91.367458,30.055583],[-91.367564,30.055721],[-91.367695,30.055789],[-91.367906,30.055995],[-91.368091,30.056293],[-91.368143,30.056431],[-91.368275,30.05666],[-91.368434,30.057095],[-91.368487,30.057553],[-91.368513,30.057943],[-91.368618,30.058012],[-91.368724,30.058516],[-91.36883,30.058722],[-91.368841,30.058829],[-91.375115,30.058841],[-91.381491,30.058774],[-91.403228,30.058655],[-91.405425,30.058636],[-91.408177,30.058621],[-91.412181,30.058599],[-91.416334,30.058576],[-91.418341,30.058565],[-91.427507,30.058516],[-91.43308,30.058486],[-91.440146,30.058435],[-91.440436,30.058389],[-91.440752,30.058435],[-91.442017,30.058435],[-91.449204,30.058375],[-91.452765,30.058388],[-91.453924,30.058376],[-91.46138,30.058341],[-91.462847,30.058325],[-91.481068,30.058126],[-91.482092,30.058115],[-91.487223,30.05806],[-91.488251,30.058243],[-91.488304,30.058128],[-91.488386,30.058021],[-91.488672,30.057647],[-91.488909,30.057074],[-91.488987,30.05524],[-91.490225,30.054392],[-91.491041,30.053704],[-91.491436,30.053314],[-91.491963,30.052695],[-91.493094,30.051114],[-91.493752,30.050059],[-91.494121,30.049189],[-91.494436,30.047951],[-91.494436,30.047631],[-91.494567,30.047149],[-91.494646,30.046485],[-91.494725,30.045935],[-91.494803,30.045247],[-91.494882,30.044857],[-91.495066,30.043597],[-91.495197,30.041947],[-91.495328,30.041557],[-91.495433,30.041374],[-91.495802,30.041053],[-91.496592,30.040686],[-91.497777,30.040364],[-91.498722,30.040255],[-91.499384,30.04018],[-91.500119,30.040328],[-91.502356,30.040637],[-91.50333,30.040568],[-91.503989,30.040317],[-91.505174,30.039653],[-91.506228,30.038966],[-91.506782,30.038301],[-91.506809,30.036766],[-91.50702,30.035666],[-91.507179,30.03507],[-91.507284,30.034612],[-91.50768,30.033672],[-91.507733,30.033558],[-91.507769,30.033287],[-91.510604,30.033307],[-91.526511,30.033289],[-91.540775,30.033255],[-91.544394,30.033293],[-91.544579,30.033339],[-91.551716,30.033294],[-91.569201,30.033143],[-91.570522,30.033088],[-91.570706,30.033134],[-91.575758,30.03314],[-91.577014,30.033144],[-91.577033,30.033144],[-91.577457,30.033141],[-91.577582,30.033141],[-91.577707,30.033141],[-91.577824,30.033141],[-91.577937,30.033138],[-91.578043,30.033139],[-91.578149,30.033141],[-91.578355,30.033142],[-91.581362,30.033153],[-91.581396,30.033153],[-91.581454,30.033153],[-91.581479,30.033153],[-91.581507,30.033154],[-91.581547,30.033154],[-91.581885,30.03316],[-91.581921,30.033155],[-91.582007,30.033155],[-91.582044,30.033155],[-91.582093,30.033156],[-91.582214,30.033157],[-91.582335,30.033157],[-91.582446,30.033157],[-91.587253,30.033174],[-91.587268,30.033174],[-91.587286,30.033174],[-91.587314,30.033174],[-91.587346,30.033174],[-91.587373,30.033174],[-91.587391,30.033174],[-91.588379,30.033178],[-91.588405,30.033178],[-91.588432,30.033178],[-91.588512,30.033179],[-91.58859,30.033179],[-91.588619,30.033179],[-91.589986,30.033178],[-91.590136,30.033178],[-91.59025,30.033178],[-91.590365,30.033178],[-91.597912,30.033175],[-91.597984,30.033175],[-91.598928,30.033175],[-91.599085,30.033175],[-91.599154,30.033175],[-91.599223,30.033175],[-91.599322,30.033175],[-91.60036,30.033174],[-91.600441,30.034352],[-91.601106,30.035918],[-91.601362,30.036521],[-91.60302,30.039067],[-91.605385,30.041997],[-91.607014,30.04455],[-91.607159,30.044883],[-91.607204,30.044985],[-91.607248,30.045086],[-91.607289,30.045181],[-91.607326,30.045266],[-91.607329,30.045275],[-91.607753,30.046278],[-91.607669,30.046541],[-91.607448,30.047156],[-91.607374,30.047363],[-91.607299,30.04757],[-91.606643,30.049397],[-91.6066,30.049517],[-91.606557,30.049638],[-91.606397,30.050091],[-91.606387,30.050119],[-91.606381,30.050138],[-91.606372,30.050163],[-91.606065,30.051033],[-91.605949,30.051951],[-91.605922,30.052169],[-91.605896,30.052374],[-91.605894,30.052388],[-91.605746,30.053551],[-91.605663,30.054242],[-91.605656,30.054257],[-91.605572,30.054926],[-91.605811,30.056358],[-91.605835,30.056501],[-91.605861,30.056654],[-91.60592,30.057043],[-91.605923,30.057061],[-91.605933,30.057132],[-91.605948,30.057227],[-91.605966,30.05733],[-91.60597,30.057352],[-91.605998,30.057509],[-91.606002,30.057533],[-91.607016,30.059177],[-91.608262,30.061212],[-91.608383,30.061406],[-91.608436,30.061491],[-91.608543,30.061662],[-91.609196,30.062712],[-91.609242,30.062793],[-91.609331,30.06291],[-91.609404,30.063006],[-91.609552,30.063219],[-91.609559,30.06323],[-91.609679,30.063404],[-91.609708,30.063446],[-91.609813,30.063629],[-91.610053,30.064046],[-91.610909,30.065504],[-91.611247,30.066083],[-91.6114,30.06635],[-91.611665,30.066812],[-91.612187,30.067726],[-91.612316,30.06795],[-91.614742,30.068679],[-91.616893,30.068852],[-91.616924,30.068854],[-91.617011,30.068871],[-91.617336,30.068934],[-91.617579,30.06898],[-91.617989,30.069074],[-91.618002,30.069077],[-91.618053,30.069089],[-91.6186,30.069197],[-91.619514,30.069378],[-91.61982,30.069438],[-91.620379,30.069549],[-91.620582,30.069589],[-91.62238,30.069929],[-91.624177,30.07027],[-91.62512,30.070449],[-91.628187,30.070974],[-91.630585,30.071885],[-91.634109,30.075231],[-91.636659,30.07774],[-91.64033,30.081215],[-91.642389,30.08341],[-91.643276,30.085111],[-91.644162,30.08681],[-91.645023,30.088462],[-91.649562,30.094315],[-91.651559,30.096476],[-91.652065,30.097024],[-91.654169,30.09978],[-91.654682,30.100972],[-91.654686,30.100982],[-91.654722,30.101064],[-91.654759,30.10115],[-91.654764,30.101162],[-91.655276,30.102351],[-91.655378,30.10252],[-91.655389,30.102538],[-91.655608,30.102901],[-91.656186,30.10386],[-91.656203,30.103888],[-91.656234,30.10394],[-91.656399,30.104213],[-91.657076,30.105159],[-91.657092,30.105191],[-91.657649,30.106277],[-91.657811,30.106594],[-91.658202,30.107207],[-91.658698,30.107872],[-91.658892,30.108231],[-91.659362,30.108451],[-91.66048,30.109311],[-91.661235,30.109776],[-91.661529,30.109957],[-91.662588,30.110369],[-91.663177,30.110487],[-91.664122,30.110217],[-91.664453,30.110191],[-91.664678,30.110231],[-91.66508,30.110043],[-91.665492,30.110005],[-91.665812,30.110078],[-91.666067,30.110198],[-91.666452,30.110472],[-91.667014,30.111139],[-91.667278,30.111367],[-91.667976,30.111812],[-91.668346,30.112141],[-91.668374,30.112166],[-91.668386,30.112177],[-91.668433,30.112219],[-91.668457,30.11224],[-91.66852,30.112296],[-91.668871,30.112609],[-91.669458,30.112898],[-91.670434,30.112729],[-91.671313,30.112514],[-91.671788,30.112294],[-91.671937,30.11217],[-91.672022,30.112024],[-91.672242,30.11181],[-91.67244,30.111495],[-91.672713,30.111278],[-91.672994,30.11122],[-91.673571,30.111419],[-91.673984,30.111414],[-91.674184,30.111367],[-91.674304,30.111303],[-91.674475,30.111211],[-91.674536,30.111179],[-91.67476,30.110949],[-91.675171,30.110206],[-91.675325,30.109684],[-91.675707,30.109129],[-91.675855,30.108832],[-91.675923,30.108444],[-91.675735,30.10797],[-91.675533,30.10779],[-91.675254,30.107636],[-91.675091,30.107473],[-91.675073,30.107226],[-91.675255,30.107032],[-91.676323,30.106481],[-91.676787,30.106125],[-91.676987,30.105854],[-91.677142,30.105312],[-91.677588,30.105239],[-91.678396,30.104967],[-91.678684,30.104963],[-91.679057,30.105107],[-91.679839,30.105893],[-91.680084,30.105921],[-91.680328,30.105891],[-91.680579,30.105776],[-91.68078,30.105738],[-91.680976,30.105792],[-91.681203,30.105942],[-91.68136,30.106312],[-91.681537,30.106461],[-91.681818,30.10652],[-91.682354,30.106495],[-91.682835,30.1067],[-91.682968,30.106836],[-91.683193,30.107375],[-91.68338,30.10761],[-91.684078,30.108223],[-91.6844,30.108385],[-91.684789,30.108499],[-91.684994,30.109078],[-91.68501,30.109157],[-91.685285,30.110472],[-91.685436,30.110948],[-91.685903,30.112182],[-91.686327,30.112824],[-91.686792,30.113117],[-91.687822,30.113492],[-91.688557,30.113642],[-91.69013,30.113865],[-91.692616,30.114394],[-91.693969,30.114857],[-91.694728,30.115029],[-91.695969,30.11557],[-91.696243,30.115786],[-91.696375,30.115966],[-91.696569,30.11651],[-91.696935,30.118048],[-91.697365,30.118991],[-91.697698,30.11948],[-91.698094,30.119934],[-91.698707,30.120437],[-91.698981,30.120596],[-91.699505,30.120789],[-91.70158,30.121288],[-91.702346,30.121356],[-91.702827,30.121292],[-91.703284,30.121149],[-91.703719,30.120923],[-91.704394,30.120441],[-91.70469,30.120169],[-91.704939,30.11976],[-91.705238,30.119427],[-91.705942,30.119001],[-91.706465,30.11856],[-91.706882,30.117915],[-91.707097,30.117737],[-91.707283,30.117673],[-91.707602,30.117644],[-91.70799,30.117692],[-91.708568,30.117839],[-91.708833,30.11778],[-91.709031,30.117811],[-91.709398,30.117715],[-91.709471,30.117696],[-91.710431,30.117421],[-91.711445,30.117198],[-91.712289,30.117204],[-91.713864,30.117687],[-91.717744,30.119093],[-91.717833,30.119125],[-91.717906,30.11915],[-91.718214,30.119253],[-91.718239,30.119258],[-91.718262,30.119262],[-91.718404,30.119288],[-91.718559,30.119316],[-91.718583,30.11932],[-91.718624,30.119327],[-91.718673,30.119336],[-91.719131,30.119419],[-91.719143,30.119421],[-91.71916,30.119424],[-91.719196,30.119435],[-91.719339,30.119481],[-91.719359,30.119487],[-91.719377,30.119493],[-91.719398,30.1195],[-91.719583,30.119559],[-91.719644,30.119617],[-91.720078,30.120033],[-91.720298,30.120155],[-91.720353,30.120185],[-91.720757,30.120193],[-91.721454,30.120012],[-91.721954,30.120109],[-91.722784,30.120269],[-91.723073,30.120401],[-91.723515,30.120871],[-91.723763,30.12109],[-91.72439,30.121639],[-91.725804,30.122182],[-91.726634,30.122418],[-91.726724,30.122444],[-91.726826,30.122473],[-91.727111,30.122399],[-91.727136,30.122392],[-91.727605,30.122269],[-91.727666,30.122258],[-91.727852,30.122225],[-91.728104,30.12222],[-91.728832,30.12239],[-91.729933,30.122489],[-91.731249,30.122384],[-91.731977,30.12223],[-91.732128,30.122163],[-91.732324,30.122009],[-91.732438,30.121861],[-91.732868,30.120645],[-91.733077,30.12031],[-91.733526,30.119979],[-91.734645,30.119511],[-91.735151,30.11917],[-91.735708,30.118873],[-91.736037,30.118752],[-91.736322,30.11868],[-91.737094,30.118735],[-91.738543,30.118971],[-91.73941,30.119026],[-91.739802,30.118993],[-91.741416,30.118655],[-91.741541,30.118629],[-91.742813,30.118392],[-91.743597,30.118293],[-91.745174,30.11805],[-91.745742,30.117962],[-91.746318,30.117863],[-91.746697,30.117692],[-91.747013,30.117466],[-91.748885,30.11537],[-91.74958,30.114638],[-91.749694,30.114517],[-91.750118,30.114148],[-91.751442,30.113091],[-91.751914,30.112719],[-91.751936,30.112702],[-91.75195,30.112691],[-91.752007,30.112646],[-91.752322,30.112398],[-91.752385,30.112348],[-91.752457,30.112311],[-91.75267,30.1122],[-91.753024,30.112068],[-91.753505,30.111931],[-91.753904,30.111832],[-91.754106,30.111766],[-91.754581,30.111645],[-91.755005,30.111475],[-91.755846,30.111206],[-91.756201,30.110997],[-91.75653,30.110722],[-91.756865,30.110458],[-91.757207,30.110222],[-91.757467,30.11009],[-91.757827,30.109969],[-91.758137,30.109854],[-91.758454,30.1097],[-91.758707,30.10953],[-91.75889,30.109519],[-91.759219,30.109535],[-91.759624,30.109618],[-91.75989,30.109662],[-91.760269,30.109668],[-91.760611,30.109619],[-91.761016,30.109542],[-91.761402,30.109542],[-91.761794,30.109619],[-91.761977,30.109614],[-91.76203,30.109603],[-91.762363,30.109537],[-91.762566,30.109432],[-91.762761,30.109271],[-91.763066,30.10902],[-91.763287,30.108943],[-91.763933,30.108773],[-91.7643,30.108685],[-91.764616,30.10863],[-91.764708,30.10861],[-91.765116,30.10852],[-91.765174,30.1085],[-91.765208,30.108363],[-91.76548,30.106853],[-91.766128,30.105263],[-91.766151,30.105206],[-91.766238,30.104993],[-91.766251,30.104961],[-91.766361,30.104691],[-91.766462,30.104442],[-91.767285,30.101769],[-91.767339,30.101592],[-91.767355,30.101535],[-91.76884,30.096281],[-91.764435,30.096759],[-91.764267,30.096781],[-91.764235,30.096785],[-91.764027,30.096812],[-91.763692,30.09685],[-91.763563,30.096479],[-91.763085,30.09548],[-91.762524,30.094306],[-91.761549,30.092565],[-91.760602,30.090783],[-91.760909,30.090759],[-91.764295,30.090494],[-91.765554,30.090384],[-91.76592,30.090352],[-91.768303,30.090144],[-91.768315,30.090143],[-91.76979,30.090057],[-91.770599,30.089993],[-91.771285,30.089727],[-91.771841,30.089522],[-91.772038,30.089465],[-91.772275,30.08942],[-91.772527,30.089412],[-91.772604,30.089409],[-91.772645,30.089321],[-91.772733,30.089269],[-91.773125,30.089117],[-91.773414,30.089003],[-91.773534,30.088959],[-91.773712,30.088878],[-91.774068,30.088717],[-91.774251,30.088634],[-91.776626,30.08737],[-91.776642,30.087362],[-91.777363,30.086966],[-91.778035,30.086567],[-91.778341,30.086378],[-91.778691,30.086161],[-91.778772,30.086104],[-91.779271,30.085753],[-91.77932,30.085718],[-91.780501,30.084753],[-91.780807,30.084505],[-91.780828,30.084488],[-91.781093,30.084274],[-91.781702,30.083804],[-91.782259,30.083389],[-91.782288,30.083367],[-91.78232,30.083343],[-91.782887,30.082891],[-91.782917,30.082867],[-91.783351,30.082498],[-91.783497,30.082374],[-91.784067,30.081874],[-91.784641,30.081378],[-91.784855,30.081201],[-91.784872,30.081186],[-91.784883,30.081177],[-91.784904,30.08116],[-91.785104,30.080994],[-91.785234,30.080887],[-91.785289,30.080844],[-91.785308,30.080829],[-91.785404,30.080753],[-91.785412,30.080747],[-91.78584,30.08041],[-91.786075,30.080255],[-91.786138,30.080213],[-91.786148,30.080206],[-91.786159,30.080199],[-91.78714,30.079551],[-91.787777,30.079114],[-91.788404,30.078728],[-91.788421,30.078717],[-91.788441,30.078705],[-91.788457,30.078696],[-91.788467,30.07869],[-91.788975,30.078393],[-91.788984,30.078388],[-91.78912,30.078308],[-91.789143,30.078295],[-91.789457,30.078114],[-91.789971,30.077818],[-91.790464,30.077534],[-91.791111,30.077104],[-91.791705,30.076694],[-91.791748,30.076664],[-91.791803,30.076611],[-91.791818,30.076592],[-91.791849,30.076552],[-91.791885,30.076488],[-91.791909,30.076419],[-91.791954,30.076211],[-91.792144,30.076178],[-91.792369,30.076107],[-91.792601,30.076018],[-91.793038,30.07573],[-91.793384,30.075485],[-91.794372,30.074852],[-91.794485,30.074789],[-91.794587,30.074718],[-91.794746,30.074608],[-91.797034,30.073019],[-91.797695,30.072552],[-91.800653,30.070463],[-91.801067,30.0702],[-91.801084,30.070189],[-91.801101,30.070178],[-91.801487,30.069933],[-91.801505,30.069921],[-91.801496,30.06991],[-91.800455,30.068629],[-91.79893,30.066751],[-91.799231,30.066441],[-91.799352,30.066311],[-91.803928,30.061181],[-91.806056,30.058794],[-91.808418,30.056147],[-91.809997,30.054377],[-91.812426,30.051654],[-91.81244,30.051638],[-91.812488,30.051584],[-91.812555,30.051508],[-91.812576,30.051484],[-91.812597,30.05146],[-91.812606,30.05145],[-91.812621,30.051433],[-91.813799,30.050096],[-91.813874,30.050015],[-91.813947,30.049932],[-91.813966,30.04991],[-91.814056,30.049738],[-91.814098,30.049658],[-91.814236,30.049521],[-91.814522,30.049236],[-91.814543,30.049216],[-91.815011,30.048736],[-91.815267,30.048464],[-91.815527,30.048195],[-91.815885,30.047816],[-91.815995,30.047691],[-91.819222,30.044018],[-91.822515,30.045388],[-91.822805,30.04551],[-91.823264,30.045699],[-91.823398,30.045755],[-91.823452,30.045777],[-91.823484,30.04579],[-91.823532,30.04581],[-91.823604,30.04584],[-91.827693,30.047533],[-91.827706,30.047538],[-91.831596,30.049148],[-91.832297,30.04946],[-91.838891,30.052205],[-91.850687,30.057084],[-91.850959,30.057215],[-91.851241,30.057331],[-91.851803,30.057565],[-91.851971,30.057635],[-91.869593,30.064913],[-91.87051,30.065291],[-91.870882,30.065431],[-91.871015,30.06549],[-91.871209,30.065577],[-91.871272,30.065606],[-91.871358,30.065644],[-91.873463,30.066512],[-91.874365,30.066884],[-91.874414,30.066904],[-91.874424,30.066908],[-91.874472,30.066928],[-91.875159,30.067213],[-91.876091,30.067541],[-91.876213,30.067584],[-91.876287,30.067545],[-91.88244,30.064306],[-91.883315,30.063845],[-91.883618,30.063671],[-91.883633,30.063664],[-91.883646,30.063658],[-91.883778,30.063597],[-91.883886,30.063547],[-91.89624,30.057089],[-91.896255,30.057085],[-91.896515,30.057477],[-91.897601,30.058995],[-91.897773,30.059208],[-91.897799,30.059239],[-91.897811,30.059254],[-91.899095,30.061087],[-91.899111,30.06111],[-91.899234,30.061286],[-91.899521,30.061709],[-91.899533,30.061727],[-91.899721,30.061989],[-91.902251,30.065518],[-91.90318,30.066821],[-91.907248,30.072501],[-91.90741,30.072503],[-91.909673,30.072528],[-91.914184,30.072635],[-91.915075,30.07266],[-91.915206,30.072663],[-91.915458,30.072668],[-91.915517,30.072669],[-91.915785,30.072674],[-91.916259,30.072688],[-91.916496,30.072694],[-91.916536,30.072695],[-91.916615,30.072697],[-91.921373,30.072817],[-91.922949,30.072839],[-91.92296,30.072839],[-91.935103,30.072993],[-91.937251,30.073021],[-91.939296,30.073049],[-91.939447,30.073051],[-91.939582,30.073053],[-91.939616,30.073053],[-91.939855,30.073056],[-91.939875,30.073056],[-91.947966,30.073232],[-91.948112,30.073235],[-91.948286,30.073214],[-91.951004,30.073218],[-91.951165,30.072785],[-91.952283,30.069764],[-91.953139,30.067451],[-91.953179,30.067343],[-91.953602,30.066201],[-91.953877,30.06546],[-91.954395,30.064062],[-91.95471,30.063212],[-91.954859,30.06281],[-91.955301,30.061615],[-91.956496,30.058388],[-91.957239,30.056381],[-91.958818,30.052116],[-91.959196,30.051098],[-91.959216,30.051043],[-91.959685,30.049775],[-91.961866,30.043887],[-91.96198,30.043587],[-91.962796,30.041375],[-91.963833,30.03818],[-91.96431,30.03723],[-91.964464,30.036923],[-91.964523,30.036762],[-91.967955,30.037991]]]},"properties":{"OBJECTID":1,"STATEFP":"22","COUNTYFP":"045","COUNTYNS":"00558576","NAMELSAD":"Iberia Parish","LSAD":"15","FUNCSTAT":"A","CLASSFP":"H1","CHNG_TYPE":" ","EFF_DATE":null,"AUTHTYPE":" ","DOCU":" ","FORM_ID":" ","AREA":0,"RELATE":" ","JUSTIFY":" ","NAME":"Iberia","VINTAGE":" ","Shape_Length":1187340.761456372,"Shape_Area":29011782598.73785}}],"_harvest":{"tool":"tools/gis-harvest.mjs","harvestedAt":"2026-08-02T18:39:06.728Z","sourceUrl":"https://maps.iberiagov.net/server/rest/services/Govt_Units/Updated_Parish_Boundary/MapServer/0/query","filter":"none -- this file IS the parish boundary / the clip mask for every other layer","coordPrecisionDecimals":6,"attribution":"Iberia Parish GIS -- attribution wording pending confirmation with the parish GIS office (see data/gis/sources.json openQuestions.iberia-terms-of-use)"}}