{
  "type": "FeatureCollection",
  "features": [
    {
      "type": "Feature",
      "geometry": {
        "type": "Point",
        "coordinates": [
          -91.194771,
          30.409712
        ]
      },
      "properties": {
        "stop": 1,
        "key": "lot414",
        "name": "Lot 414 \u00b7 River Road Arrival",
        "kind": "ROUTE",
        "group": "",
        "confidence": "derived",
        "blurb": "Recruit families arrive off River Road and park. Have the gameday logistics graphic ready at the entrance.",
        "note": "Position derived from LSU 2026 Pregame Traffic Flow map, updated 16 Aug 2026."
      }
    },
    {
      "type": "Feature",
      "geometry": {
        "type": "Point",
        "coordinates": [
          -91.195431,
          30.410365
        ]
      },
      "properties": {
        "stop": 2,
        "key": "bus",
        "name": "Board the Charter Bus",
        "kind": "ROUTE",
        "group": "",
        "confidence": "pending",
        "blurb": "Buses are parked in the lot. Once you park, walk over and board. Staff will point the way.",
        "note": "Bus staging position inside Lot 414 to be confirmed."
      }
    },
    {
      "type": "Feature",
      "geometry": {
        "type": "Point",
        "coordinates": [
          -91.18856,
          30.41056
        ]
      },
      "properties": {
        "stop": 3,
        "key": "ops",
        "name": "Football Operations Facility",
        "kind": "FACILITY",
        "group": "ops",
        "confidence": "verified",
        "blurb": "Arrival point for the visit. Home base before the walk to the stadium.",
        "note": ""
      }
    },
    {
      "type": "Feature",
      "geometry": {
        "type": "Point",
        "coordinates": [
          -91.18856,
          30.41056
        ]
      },
      "properties": {
        "stop": 4,
        "key": "tailgate",
        "name": "Tiger Tailgate \u00b7 Indoors",
        "kind": "FACILITY",
        "group": "ops",
        "confidence": "verified",
        "blurb": "Indoor tailgate. Walk-On's catering, video games, facility tour, former players.",
        "note": "Inside the Football Operations Facility."
      }
    },
    {
      "type": "Feature",
      "geometry": {
        "type": "Point",
        "coordinates": [
          -91.18856,
          30.41056
        ]
      },
      "properties": {
        "stop": 5,
        "key": "registration",
        "name": "Registration",
        "kind": "FACILITY",
        "group": "ops",
        "confidence": "pending",
        "blurb": "Recruit check in. Arrival time is printed on the gameday logistics graphic.",
        "note": "Assumed inside the Operations Facility. Exact room to be confirmed."
      }
    },
    {
      "type": "Feature",
      "geometry": {
        "type": "Point",
        "coordinates": [
          -91.18435,
          30.4132
        ]
      },
      "properties": {
        "stop": 6,
        "key": "tigerwalk",
        "name": "Tiger Walk \u00b7 Victory Hill",
        "kind": "ROUTE",
        "group": "",
        "confidence": "verified",
        "blurb": "The team, spirit squad and band come down Victory Hill along North Stadium Drive.",
        "note": "Guest drop point for the walk to be confirmed."
      }
    },
    {
      "type": "Feature",
      "geometry": {
        "type": "Point",
        "coordinates": [
          -91.18448,
          30.41268
        ]
      },
      "properties": {
        "stop": 7,
        "key": "lawton",
        "name": "Lawton Room",
        "kind": "FACILITY",
        "group": "stadium",
        "confidence": "verified",
        "blurb": "Northwest corner of Tiger Stadium at Gate 7. Staff remarks, halftime meal, open all game.",
        "note": "LSU Athletics places the Lawton Room at the corner of North Stadium Dr and West Stadium Dr."
      }
    },
    {
      "type": "Feature",
      "geometry": {
        "type": "Point",
        "coordinates": [
          -91.183816,
          30.412035
        ]
      },
      "properties": {
        "stop": 8,
        "key": "fieldlevel",
        "name": "Field Level Warmups",
        "kind": "FACILITY",
        "group": "stadium",
        "confidence": "pending",
        "blurb": "Field level access to watch pregame warmups from behind the designated lines.",
        "note": "Access gate or tunnel to be confirmed."
      }
    },
    {
      "type": "Feature",
      "geometry": {
        "type": "Point",
        "coordinates": [
          -91.183816,
          30.412035
        ]
      },
      "properties": {
        "stop": 9,
        "key": "kickoff",
        "name": "Kickoff \u00b7 Death Valley",
        "kind": "FACILITY",
        "group": "stadium",
        "confidence": "verified",
        "blurb": "Saturday night in Tiger Stadium.",
        "note": ""
      }
    },
    {
      "type": "Feature",
      "geometry": {
        "type": "Point",
        "coordinates": [
          -91.18734,
          30.41273
        ]
      },
      "properties": {
        "stop": 10,
        "key": "postgame",
        "name": "Postgame \u00b7 Nicholson Gateway",
        "kind": "ROUTE",
        "group": "",
        "confidence": "verified",
        "blurb": "Buses stage in front of Matherne's Market and Torchy's. Walk North Stadium Dr and cross Nicholson.",
        "note": "Matherne's Market at LSU and Torchy's sit roughly 350 ft apart in the Nicholson Gateway development."
      }
    },
    {
      "type": "Feature",
      "geometry": {
        "type": "LineString",
        "coordinates": [
          [
            -91.194774,
            30.409715
          ],
          [
            -91.19508,
            30.410017
          ],
          [
            -91.195431,
            30.410378
          ]
        ]
      },
      "properties": {
        "leg": 1,
        "mode": "walk",
        "name": "Park, then walk to the buses in the lot"
      }
    },
    {
      "type": "Feature",
      "geometry": {
        "type": "LineString",
        "coordinates": [
          [
            -91.195431,
            30.410378
          ],
          [
            -91.19569,
            30.410895
          ],
          [
            -91.196026,
            30.411452
          ],
          [
            -91.19565,
            30.412041
          ],
          [
            -91.195086,
            30.412864
          ],
          [
            -91.194579,
            30.413583
          ],
          [
            -91.193505,
            30.413264
          ],
          [
            -91.191894,
            30.412785
          ],
          [
            -91.190096,
            30.412147
          ],
          [
            -91.189023,
            30.411806
          ],
          [
            -91.188633,
            30.411682
          ],
          [
            -91.188444,
            30.411292
          ],
          [
            -91.188377,
            30.41087
          ],
          [
            -91.188562,
            30.410559
          ]
        ]
      },
      "properties": {
        "leg": 2,
        "mode": "bus",
        "name": "Lot 414 to the Operations Facility"
      }
    },
    {
      "type": "Feature",
      "geometry": {
        "type": "LineString",
        "coordinates": [
          [
            -91.188562,
            30.410559
          ],
          [
            -91.188377,
            30.41087
          ],
          [
            -91.188444,
            30.411292
          ],
          [
            -91.188633,
            30.411682
          ],
          [
            -91.188129,
            30.411493
          ],
          [
            -91.187466,
            30.411278
          ],
          [
            -91.186784,
            30.411061
          ],
          [
            -91.186266,
            30.410903
          ],
          [
            -91.186259,
            30.411373
          ],
          [
            -91.18634,
            30.411873
          ],
          [
            -91.186404,
            30.412328
          ],
          [
            -91.185883,
            30.412608
          ],
          [
            -91.185345,
            30.412832
          ],
          [
            -91.184727,
            30.41307
          ],
          [
            -91.184357,
            30.413199
          ]
        ]
      },
      "properties": {
        "leg": 3,
        "mode": "bus",
        "name": "Operations Facility to Tiger Walk"
      }
    },
    {
      "type": "Feature",
      "geometry": {
        "type": "LineString",
        "coordinates": [
          [
            -91.184357,
            30.413199
          ],
          [
            -91.184417,
            30.412953
          ],
          [
            -91.184478,
            30.412685
          ]
        ]
      },
      "properties": {
        "leg": 4,
        "mode": "walk",
        "name": "Tiger Walk to the Lawton Room"
      }
    },
    {
      "type": "Feature",
      "geometry": {
        "type": "LineString",
        "coordinates": [
          [
            -91.184478,
            30.412685
          ],
          [
            -91.184182,
            30.412384
          ],
          [
            -91.183819,
            30.412033
          ]
        ]
      },
      "properties": {
        "leg": 5,
        "mode": "walk",
        "name": "Lawton Room to field level and kickoff"
      }
    },
    {
      "type": "Feature",
      "geometry": {
        "type": "LineString",
        "coordinates": [
          [
            -91.183819,
            30.412033
          ],
          [
            -91.184153,
            30.412491
          ],
          [
            -91.184471,
            30.412772
          ],
          [
            -91.185039,
            30.412924
          ],
          [
            -91.185656,
            30.412696
          ],
          [
            -91.186255,
            30.412446
          ],
          [
            -91.18681,
            30.412629
          ],
          [
            -91.187342,
            30.412733
          ]
        ]
      },
      "properties": {
        "leg": 6,
        "mode": "walk",
        "name": "Postgame: North Stadium Dr, cross Nicholson, to the buses"
      }
    }
  ]
}