{
"type": "FeatureCollection",
"name": "tours",
"crs": { "type": "name", "properties": { "name": "urn:ogc:def:crs:OGC:1.3:CRS84" } },
"features": [
{ "type": "Feature", "properties": { "fid": 1, "name": "New Iberia", "tour_group": "mainTour", "order_num": 2, "description": null }, "geometry": { "type": "Polygon", "coordinates": [ [ [ -91.848161985879173, 30.006468353609165 ], [ -91.841982176308946, 30.009144079132344 ], [ -91.84610204935575, 30.015387158024097 ], [ -91.837518980508221, 30.021927104904165 ], [ -91.837175657754315, 30.031736216443001 ], [ -91.83133917093798, 30.044219136278471 ], [ -91.803530027871872, 30.02816937909574 ], [ -91.816576292520153, 30.020143525802961 ], [ -91.821382811074812, 30.022521624141692 ], [ -91.818979551797483, 30.017468096997728 ], [ -91.790827085977512, 30.012414312320235 ], [ -91.779497435098733, 30.014495313669055 ], [ -91.782587339883847, 30.004089870339065 ], [ -91.788080503946304, 29.995467390548139 ], [ -91.780527403360452, 29.989520416298326 ], [ -91.783960630899458, 29.985059951821448 ], [ -91.792543699747029, 29.989223058234007 ], [ -91.805589964395296, 29.96662123980326 ], [ -91.817606260781901, 29.970190289875969 ], [ -91.805589964395296, 29.984465208084998 ], [ -91.812113096719443, 29.986844161657736 ], [ -91.815203001504571, 29.983573085801375 ], [ -91.820696165567014, 29.985654691995752 ], [ -91.829965879922369, 29.979409742509329 ], [ -91.84301214457065, 29.988033617070602 ], [ -91.840952208047227, 29.993683335681688 ], [ -91.85228185892602, 30.00349524061264 ], [ -91.848161985879173, 30.006468353609165 ] ] ] } },
{ "type": "Feature", "properties": { "fid": 2, "name": "Cypremort Point State Park", "tour_group": "mainTour", "order_num": 1, "description": null }, "geometry": { "type": "Polygon", "coordinates": [ [ [ -91.855929663186188, 29.741214943431409 ], [ -91.852925589089551, 29.742034711026609 ], [ -91.851037313943081, 29.733873998579039 ], [ -91.83927850962192, 29.731936197620701 ], [ -91.839235594277682, 29.730445556027622 ], [ -91.855071356301394, 29.731861666067072 ], [ -91.855929663186188, 29.741214943431409 ] ] ] } },
{ "type": "Feature", "properties": { "fid": 3, "name": " Lake Fausse Pointe State Park", "tour_group": "mainTour", "order_num": 3, "description": null }, "geometry": { "type": "Polygon", "coordinates": [ [ [ -91.661308577067913, 30.096362887211342 ], [ -91.660621931560101, 30.107055644322664 ], [ -91.636589338786933, 30.095174731680853 ], [ -91.605346968181848, 30.063683407842312 ], [ -91.536339094647474, 29.957846780142788 ], [ -91.556938459881636, 29.927204458586772 ], [ -91.619079878337942, 29.934345260465317 ], [ -91.617019941814505, 29.963498215833713 ], [ -91.653755476482061, 29.985803376482746 ], [ -91.665085127360854, 30.017914006811257 ], [ -91.639335920818169, 30.031884831880333 ], [ -91.634186079509647, 30.050014243029622 ], [ -91.625603010662076, 30.060414866197924 ], [ -91.624573042400357, 30.065169072912301 ], [ -91.634186079509647, 30.06279199809692 ], [ -91.654785444743766, 30.078539054992017 ], [ -91.661308577067913, 30.096362887211342 ] ] ] } }
]
}
