{
"type": "FeatureCollection",
"name": "tours",
"crs": { "type": "name", "properties": { "name": "urn:ogc:def:crs:OGC:1.3:CRS84" } },
"_note": "COORDINATES ARE APPROXIMATE PLACEHOLDERS derived from the park's general layout (entrance off US 190 NW, beach/cabins on Lake Pontchartrain SE). Refine each polygon against satellite imagery in geojson.io or QGIS before the demo ships — 15-minute task, see BUILD-GUIDE.md step 2. Feature names are exact lookup keys into locations.json and treedis-sweeps.json: NO leading/trailing spaces (this bug bit Lake Fausse Pointe in the NewIberia build).",
"features": [
{ "type": "Feature", "properties": { "fid": 1, "name": "Entrance & Parking", "tour_group": "mainTour", "order_num": 1, "description": null }, "geometry": { "type": "Polygon", "coordinates": [ [ [ -90.0395, 30.3450 ], [ -90.0370, 30.3450 ], [ -90.0370, 30.3428 ], [ -90.0395, 30.3428 ], [ -90.0395, 30.3450 ] ] ] } },
{ "type": "Feature", "properties": { "fid": 2, "name": "Sugar Mill Ruins", "tour_group": "mainTour", "order_num": 2, "description": null }, "geometry": { "type": "Polygon", "coordinates": [ [ [ -90.0368, 30.3418 ], [ -90.0348, 30.3418 ], [ -90.0348, 30.3402 ], [ -90.0368, 30.3402 ], [ -90.0368, 30.3418 ] ] ] } },
{ "type": "Feature", "properties": { "fid": 3, "name": "Accessible Playground", "tour_group": "mainTour", "order_num": 3, "description": null }, "geometry": { "type": "Polygon", "coordinates": [ [ [ -90.0310, 30.3372 ], [ -90.0292, 30.3372 ], [ -90.0292, 30.3358 ], [ -90.0310, 30.3358 ], [ -90.0310, 30.3372 ] ] ] } },
{ "type": "Feature", "properties": { "fid": 4, "name": "Beach & Splash Pad", "tour_group": "mainTour", "order_num": 4, "description": null }, "geometry": { "type": "Polygon", "coordinates": [ [ [ -90.0290, 30.3355 ], [ -90.0262, 30.3355 ], [ -90.0262, 30.3338 ], [ -90.0290, 30.3338 ], [ -90.0290, 30.3355 ] ] ] } },
{ "type": "Feature", "properties": { "fid": 5, "name": "Waterfront Cabins", "tour_group": "mainTour", "order_num": 5, "description": null }, "geometry": { "type": "Polygon", "coordinates": [ [ [ -90.0258, 30.3348 ], [ -90.0230, 30.3348 ], [ -90.0230, 30.3330 ], [ -90.0258, 30.3330 ], [ -90.0258, 30.3348 ] ] ] } }
]
}
