{"type":"FeatureCollection","name":"buildings","features":[{"type":"Feature","properties":{"fid":1,"osm_id":133751599,"name":"Pete Maravich Assembly Center","building":"stadium"},"geometry":{"type":"Polygon","coordinates":[[[-91.1850496,30.4151001],[-91.184194,30.4151915],[-91.1841571,30.4149214],[-91.1842805,30.4149076],[-91.1842765,30.4148486],[-91.1844334,30.4148549],[-91.18443,30.4147375],[-91.1843516,30.4147358],[-91.1842644,30.4147242],[-91.1841833,30.4146994],[-91.1841088,30.4146658],[-91.1840391,30.4146213],[-91.1839801,30.4145675],[-91.1839332,30.4145062],[-91.1838996,30.4144403],[-91.1838728,30.4143703],[-91.1838607,30.4142957],[-91.1838621,30.4142177],[-91.1838762,30.4141477],[-91.1839037,30.4140737],[-91.1839466,30.4140118],[-91.1839995,30.4139523],[-91.1840673,30.4138979],[-91.1841357,30.413858],[-91.1842088,30.4138308],[-91.1842932,30.4138088],[-91.1843764,30.4137984],[-91.1844622,30.4137886],[-91.1845561,30.4137765],[-91.1846386,30.4137788],[-91.1847224,30.4137938],[-91.1848035,30.4138204],[-91.184878,30.4138574],[-91.1849464,30.4139014],[-91.1850034,30.4139494],[-91.185057,30.4140182],[-91.1850952,30.4140824],[-91.185118,30.4141518],[-91.1851281,30.4142264],[-91.1851261,30.4143033],[-91.1851053,30.4143767],[-91.1850811,30.4144444],[-91.1850389,30.4145103],[-91.1849846,30.4145687],[-91.1849209,30.4146178],[-91.1849556,30.4146569],[-91.1850507,30.414762],[-91.1849409,30.4148275],[-91.1850116,30.4148219],[-91.1850496,30.4151001]]]}},{"type":"Feature","properties":{"fid":2,"osm_id":134030140,"name":null,"building":"yes"},"geometry":{"type":"Polygon","coordinates":[[[-91.1890889,30.4089835],[-91.1883549,30.4089641],[-91.1883163,30.4100805],[-91.1883858,30.4100844],[-91.1883626,30.4105827],[-91.1884476,30.4105827],[-91.1884515,30.410826],[-91.189058,30.4108338],[-91.1890734,30.4101037],[-91.1890889,30.4089835]]]}},{"type":"Feature","properties":{"fid":3,"osm_id":155026533,"name":"Woodin Hall","building":"university"},"geometry":{"type":"Polygon","coordinates":[[[-91.1803731,30.412506],[-91.180458,30.4125029],[-91.180561,30.4125016],[-91.1805601,30.4124513],[-91.1811019,30.4124409],[-91.1810984,30.4123032],[-91.1809937,30.4123053],[-91.1809937,30.4121493],[-91.1808315,30.4121493],[-91.1808315,30.4123084],[-91.1805577,30.4123136],[-91.1805572,30.4122825],[-91.1804501,30.4122839],[-91.1804442,30.4121205],[-91.1803631,30.4121227],[-91.1803633,30.4121291],[-91.1803313,30.4121298],[-91.1803331,30.4121902],[-91.1803655,30.4121895],[-91.1803655,30.4123161],[-91.1803716,30.4124549],[-91.1803751,30.4124548],[-91.1803731,30.412506]]]}},{"type":"Feature","properties":{"fid":4,"osm_id":155026535,"name":"Himes Hall","building":"university"},"geometry":{"type":"Polygon","coordinates":[[[-91.1790042,30.4137276],[-91.1791936,30.4137234],[-91.1791971,30.4138377],[-91.179476,30.4138314],[-91.1794721,30.413702],[-91.1796947,30.4136969],[-91.1796986,30.4138264],[-91.1797047,30.4140262],[-91.1794821,30.4140312],[-91.1792032,30.4140375],[-91.1792043,30.4140752],[-91.1790149,30.4140795],[-91.1790042,30.4137276]]]}},{"type":"Feature","properties":{"fid":5,"osm_id":155026536,"name":"Art Building","building":"university"},"geometry":{"type":"Polygon","coordinates":[[[-91.180816,30.411242],[-91.1808151,30.4112122],[-91.1806078,30.4112169],[-91.1806038,30.4110847],[-91.1806459,30.4110837],[-91.1807553,30.4110813],[-91.180881,30.4110784],[-91.1808851,30.4112106],[-91.1808397,30.4112117],[-91.1808406,30.4112414],[-91.1808923,30.4112402],[-91.1808986,30.4114462],[-91.1807642,30.4114493],[-91.1807579,30.4112433],[-91.180816,30.411242]]]}},{"type":"Feature","properties":{"fid":6,"osm_id":155026537,"name":"Hill Memorial Library","building":"yes"},"geometry":{"type":"Polygon","coordinates":[[[-91.1817105,30.4146475],[-91.1815763,30.4146509],[-91.1815777,30.414688],[-91.1813369,30.4146948],[-91.1813139,30.4140845],[-91.1815548,30.4140778],[-91.1815548,30.4140793],[-91.1816879,30.4140765],[-91.1816916,30.4142043],[-91.1815597,30.4142072],[-91.1815725,30.414548],[-91.181707,30.4145446],[-91.1817105,30.4146475]]]}},{"type":"Feature","properties":{"fid":7,"osm_id":155026538,"name":"Memorial Tower","building":"yes"},"geometry":{"type":"Polygon","coordinates":[[[-91.1789641,30.4145413],[-91.1789679,30.4146429],[-91.1788409,30.4146464],[-91.178837,30.4145448],[-91.1788353,30.4145449],[-91.1788297,30.4143965],[-91.1788315,30.4143964],[-91.1788272,30.4142836],[-91.1789542,30.4142801],[-91.1789585,30.4143928],[-91.1789947,30.4143918],[-91.1790003,30.4145402],[-91.1789641,30.4145413]]]}},{"type":"Feature","properties":{"fid":8,"osm_id":155026539,"name":"Foster Hall","building":"university"},"geometry":{"type":"Polygon","coordinates":[[[-91.180469,30.4154779],[-91.1802635,30.4154837],[-91.1802662,30.4155549],[-91.1800113,30.415562],[-91.1800086,30.4154908],[-91.1797993,30.4154966],[-91.179798,30.4154626],[-91.1797554,30.4154638],[-91.1797522,30.415379],[-91.1797468,30.4152353],[-91.1804929,30.4152145],[-91.1805015,30.4154429],[-91.1804677,30.4154439],[-91.180469,30.4154779]]]}},{"type":"Feature","properties":{"fid":9,"osm_id":155026540,"name":"Howe-Russell-Kniffen Geoscience Complex","building":"university"},"geometry":{"type":"Polygon","coordinates":[[[-91.1786393,30.4114528],[-91.1786392,30.4114508],[-91.1788728,30.4114456],[-91.1788772,30.411592],[-91.1788314,30.411593],[-91.1788419,30.4119384],[-91.178807,30.4119391],[-91.1788121,30.4121063],[-91.1783469,30.4121168],[-91.1783293,30.4115383],[-91.1783871,30.411537],[-91.1783861,30.4115033],[-91.1784713,30.4115014],[-91.1784699,30.4114567],[-91.1786393,30.4114528]]]}},{"type":"Feature","properties":{"fid":10,"osm_id":155026546,"name":"Art and Design","building":"university"},"geometry":{"type":"Polygon","coordinates":[[[-91.1810684,30.4120417],[-91.181069,30.412062],[-91.1808543,30.4120669],[-91.1808537,30.4120465],[-91.1808475,30.4120467],[-91.1808474,30.412043],[-91.1807255,30.4120457],[-91.1807092,30.411509],[-91.1811123,30.4114999],[-91.1811166,30.411643],[-91.1811526,30.4116422],[-91.1811555,30.4117378],[-91.1811195,30.4117386],[-91.1811257,30.4119414],[-91.1811958,30.4119398],[-91.1811968,30.411972],[-91.1811988,30.4120387],[-91.181137,30.4120401],[-91.1810684,30.4120417]]]}},{"type":"Feature","properties":{"fid":11,"osm_id":155026550,"name":null,"building":"yes"},"geometry":{"type":"Polygon","coordinates":[[[-91.1790274,30.4151327],[-91.1790116,30.4151331],[-91.179013,30.415155],[-91.1789751,30.4151935],[-91.1789075,30.4151912],[-91.1788696,30.4151609],[-91.1788695,30.4151371],[-91.1788435,30.4151378],[-91.178839,30.415017],[-91.1787877,30.4150184],[-91.1787894,30.4150627],[-91.1784707,30.4150716],[-91.1784648,30.4149134],[-91.1787834,30.4149045],[-91.1787858,30.4149695],[-91.1788371,30.4149681],[-91.1788326,30.4148481],[-91.1790165,30.414843],[-91.1790274,30.4151327]]]}},{"type":"Feature","properties":{"fid":12,"osm_id":155026551,"name":"David Boyd Hall","building":"university"},"geometry":{"type":"Polygon","coordinates":[[[-91.1789868,30.4140945],[-91.1787969,30.4140988],[-91.1787933,30.4139817],[-91.1787407,30.4139829],[-91.178742,30.4140236],[-91.1784382,30.4140304],[-91.178434,30.4138949],[-91.1787378,30.4138881],[-91.1787393,30.4139346],[-91.1787918,30.4139334],[-91.1787879,30.4138026],[-91.1788128,30.413802],[-91.1788088,30.4137788],[-91.1788426,30.413745],[-91.1789143,30.4137415],[-91.1789508,30.4137753],[-91.1789548,30.4137988],[-91.1789778,30.4137983],[-91.1789868,30.4140945]]]}},{"type":"Feature","properties":{"fid":13,"osm_id":155026552,"name":"Coates Hall","building":"university"},"geometry":{"type":"Polygon","coordinates":[[[-91.178939,30.4134611],[-91.1788146,30.4134639],[-91.1788146,30.4134644],[-91.1786346,30.4134685],[-91.178631,30.4133523],[-91.1786958,30.4133508],[-91.1786865,30.413045],[-91.1786215,30.4130465],[-91.1786176,30.4129185],[-91.1788069,30.4129142],[-91.178807,30.4129157],[-91.1789223,30.4129131],[-91.1789251,30.413005],[-91.17912,30.4130006],[-91.1791168,30.4128954],[-91.1794117,30.4128887],[-91.1794286,30.413443],[-91.1791337,30.4134497],[-91.1791306,30.413347],[-91.1789356,30.4133514],[-91.178939,30.4134611]]]}},{"type":"Feature","properties":{"fid":14,"osm_id":155026553,"name":"Engineering Shops","building":"university"},"geometry":{"type":"Polygon","coordinates":[[[-91.1799952,30.411052],[-91.1801494,30.4110485],[-91.1801588,30.4113573],[-91.1802806,30.4113545],[-91.1802711,30.4110427],[-91.1804388,30.4110389],[-91.1804523,30.4114835],[-91.1802846,30.4114873],[-91.1801628,30.4114901],[-91.1801629,30.4114929],[-91.1800087,30.4114964],[-91.1800086,30.4114936],[-91.1799536,30.4114948],[-91.179876,30.4114966],[-91.1798762,30.4115022],[-91.1797113,30.4115059],[-91.1797111,30.4115003],[-91.179584,30.4115032],[-91.1795841,30.4115045],[-91.1794349,30.4115079],[-91.1794348,30.4115066],[-91.1794258,30.4115068],[-91.1794218,30.4113739],[-91.1794308,30.4113737],[-91.1794218,30.4110777],[-91.179571,30.4110743],[-91.17958,30.4113703],[-91.179707,30.4113675],[-91.1796977,30.411059],[-91.1798626,30.4110553],[-91.179872,30.4113637],[-91.1800046,30.4113607],[-91.1799952,30.411052]]]}},{"type":"Feature","properties":{"fid":15,"osm_id":155026554,"name":"Howe Russell Geosciences Complex","building":"university"},"geometry":{"type":"Polygon","coordinates":[[[-91.1793856,30.4118763],[-91.1793498,30.4118772],[-91.1793503,30.4118964],[-91.1792994,30.4118975],[-91.1793044,30.412062],[-91.1791482,30.4120655],[-91.1791432,30.4119011],[-91.1790942,30.4119022],[-91.1790936,30.411883],[-91.179066,30.4118836],[-91.1790712,30.4120545],[-91.1788706,30.412059],[-91.1788659,30.4119067],[-91.1788494,30.4119069],[-91.1788477,30.4117874],[-91.1788637,30.4117843],[-91.1788611,30.4116296],[-91.1788942,30.411624],[-91.1790576,30.4116193],[-91.1790633,30.4117966],[-91.179091,30.411796],[-91.1790907,30.4117867],[-91.179119,30.4117861],[-91.1791137,30.4116118],[-91.1793038,30.4116075],[-91.1793091,30.4117818],[-91.1793468,30.4117809],[-91.1793471,30.4117902],[-91.179383,30.4117894],[-91.1793772,30.4115993],[-91.179574,30.4115948],[-91.1795808,30.4118193],[-91.1795876,30.4120413],[-91.1793908,30.4120458],[-91.1793856,30.4118763]]]}},{"type":"Feature","properties":{"fid":16,"osm_id":155026560,"name":"Thomas Boyd Hall","building":"university"},"geometry":{"type":"Polygon","coordinates":[[[-91.1795846,30.4151887],[-91.1790847,30.4152027],[-91.1790734,30.4149018],[-91.1793637,30.4148937],[-91.1795732,30.4148878],[-91.1795846,30.4151887]]]}},{"type":"Feature","properties":{"fid":17,"osm_id":155026561,"name":"Locket Hall","building":"university"},"geometry":{"type":"Polygon","coordinates":[[[-91.1819599,30.4135483],[-91.1815737,30.413557],[-91.1815596,30.4130958],[-91.1819459,30.413087],[-91.1819599,30.4135483]]]}},{"type":"Feature","properties":{"fid":18,"osm_id":155026562,"name":"Middleton Library","building":"yes"},"geometry":{"type":"Polygon","coordinates":[[[-91.1795683,30.414181],[-91.1796748,30.4141781],[-91.1805934,30.4141414],[-91.1806214,30.4146798],[-91.1795963,30.4147195],[-91.1795683,30.414181]]]}},{"type":"Feature","properties":{"fid":19,"osm_id":155026564,"name":null,"building":"yes"},"geometry":{"type":"Polygon","coordinates":[[[-91.1827272,30.4142011],[-91.1827331,30.4142009],[-91.1827305,30.4141269],[-91.1833655,30.4141104],[-91.183368,30.4141809],[-91.1834062,30.4141796],[-91.1834175,30.414447],[-91.1833773,30.4144482],[-91.1833794,30.4145079],[-91.1827444,30.4145244],[-91.1827425,30.4144683],[-91.1827386,30.4144684],[-91.1827272,30.4142011]]]}},{"type":"Feature","properties":{"fid":20,"osm_id":155026565,"name":"Huey P. Long Fieldhouse","building":"university"},"geometry":{"type":"Polygon","coordinates":[[[-91.1834077,30.4145802],[-91.1833794,30.4147982],[-91.1832727,30.4147879],[-91.1832812,30.4147223],[-91.1831052,30.4147053],[-91.183103,30.4147257],[-91.183212,30.4147357],[-91.1831977,30.4148526],[-91.1830629,30.4148403],[-91.1830435,30.4149989],[-91.1832592,30.4150198],[-91.1832417,30.4151544],[-91.183027,30.4151337],[-91.1830065,30.4153012],[-91.1828812,30.4152898],[-91.1828829,30.4152758],[-91.1828224,30.4152699],[-91.182842,30.4151188],[-91.1828343,30.4151181],[-91.1828496,30.4149796],[-91.18286,30.4149804],[-91.1828803,30.4148237],[-91.1828669,30.4148224],[-91.1828812,30.4147055],[-91.1829223,30.4147093],[-91.1829246,30.4146878],[-91.1829215,30.4146875],[-91.1829413,30.4145352],[-91.1834077,30.4145802]]]}},{"type":"Feature","properties":{"fid":21,"osm_id":155026566,"name":null,"building":"yes"},"geometry":{"type":"Polygon","coordinates":[[[-91.1838422,30.4154134],[-91.1832551,30.4153567],[-91.1832752,30.415202],[-91.1838623,30.4152586],[-91.1838422,30.4154134]]]}},{"type":"Feature","properties":{"fid":22,"osm_id":155026567,"name":null,"building":"yes"},"geometry":{"type":"Polygon","coordinates":[[[-91.1839054,30.4150439],[-91.1832968,30.4149852],[-91.1833177,30.4148241],[-91.1839263,30.4148828],[-91.1839054,30.4150439]]]}},{"type":"Feature","properties":{"fid":23,"osm_id":155026568,"name":"Huey P Long Field House;Maravich Assembly Center","building":"yes"},"geometry":{"type":"Polygon","coordinates":[[[-91.1836223,30.4144336],[-91.183453,30.4144388],[-91.1834396,30.4141122],[-91.1836089,30.4141071],[-91.1836223,30.4144336]]]}},{"type":"Feature","properties":{"fid":24,"osm_id":155026599,"name":"Patrick F. Taylor Hall","building":"university"},"geometry":{"type":"Polygon","coordinates":[[[-91.1791608,30.4080896],[-91.179185,30.4080233],[-91.1791259,30.4080072],[-91.1792351,30.4077087],[-91.1792655,30.4077169],[-91.1792845,30.407665],[-91.1792126,30.4076455],[-91.179214,30.4076418],[-91.1791988,30.4076377],[-91.1794289,30.4070087],[-91.1796983,30.407082],[-91.1796877,30.4071108],[-91.1801089,30.4072254],[-91.1801226,30.4071879],[-91.1806732,30.4073377],[-91.1806445,30.4074163],[-91.1806728,30.4074241],[-91.1806191,30.4075709],[-91.1806032,30.4075666],[-91.1806013,30.4075718],[-91.1805983,30.4075799],[-91.1806743,30.4076005],[-91.1805807,30.4078564],[-91.1805061,30.4078361],[-91.1805037,30.4078427],[-91.180501,30.4078499],[-91.1805193,30.4078548],[-91.1804251,30.4081122],[-91.1804112,30.4081084],[-91.1803353,30.408316],[-91.1802597,30.4082955],[-91.1802545,30.4083095],[-91.1801985,30.4082942],[-91.1801797,30.4083459],[-91.1800503,30.4083107],[-91.1800698,30.4082573],[-91.1799847,30.4082342],[-91.1799751,30.4082605],[-91.1799358,30.4082498],[-91.1798877,30.4083814],[-91.1791283,30.4081748],[-91.1791359,30.4081541],[-91.1791112,30.4081473],[-91.1791349,30.4080826],[-91.1791608,30.4080896]]]}},{"type":"Feature","properties":{"fid":25,"osm_id":155026645,"name":"Virginia Rice Williams Hall","building":"university"},"geometry":{"type":"Polygon","coordinates":[[[-91.1775596,30.4106383],[-91.1775567,30.4106384],[-91.177544,30.4102209],[-91.1775469,30.4102208],[-91.1775459,30.4101879],[-91.1776699,30.4101851],[-91.1776709,30.410218],[-91.1777723,30.4102157],[-91.1777849,30.4106332],[-91.1776836,30.4106355],[-91.1776845,30.4106671],[-91.1775605,30.4106699],[-91.1775596,30.4106383]]]}},{"type":"Feature","properties":{"fid":26,"osm_id":155026724,"name":"Tureaud Hall","building":"university"},"geometry":{"type":"Polygon","coordinates":[[[-91.1792493,30.4099621],[-91.1788205,30.4099772],[-91.1788181,30.4099247],[-91.1787775,30.4099261],[-91.1787731,30.4098335],[-91.1788137,30.4098321],[-91.1788114,30.4097823],[-91.178974,30.4097766],[-91.1789605,30.4094904],[-91.1789936,30.4094892],[-91.1789911,30.409436],[-91.1792635,30.4094264],[-91.179266,30.4094797],[-91.179295,30.4094787],[-91.1793163,30.4099308],[-91.179248,30.4099332],[-91.1792493,30.4099621]]]}},{"type":"Feature","properties":{"fid":27,"osm_id":155026726,"name":"Ingram Hall","building":"university"},"geometry":{"type":"Polygon","coordinates":[[[-91.1777191,30.4084005],[-91.1776789,30.4084252],[-91.1777586,30.4085216],[-91.1776462,30.4085908],[-91.1774221,30.4083201],[-91.1775377,30.4082489],[-91.1776136,30.4083405],[-91.1776498,30.4083183],[-91.1775868,30.4082423],[-91.1776977,30.408174],[-91.1777632,30.4082531],[-91.1778105,30.408224],[-91.1777392,30.408138],[-91.1778326,30.4080804],[-91.1780454,30.4083373],[-91.177954,30.4083936],[-91.1778729,30.4082957],[-91.1778245,30.4083255],[-91.1779093,30.4084279],[-91.1777984,30.4084962],[-91.1777191,30.4084005]]]}},{"type":"Feature","properties":{"fid":28,"osm_id":155026730,"name":null,"building":"university"},"geometry":{"type":"Polygon","coordinates":[[[-91.1781458,30.4091671],[-91.1781406,30.4090558],[-91.1781341,30.4089175],[-91.178119,30.408918],[-91.1781069,30.4086631],[-91.1780099,30.4086665],[-91.1780062,30.4085888],[-91.1781033,30.4085854],[-91.1781032,30.4085837],[-91.1781902,30.4085807],[-91.178206,30.408915],[-91.1782041,30.408915],[-91.1782106,30.4090534],[-91.1786326,30.4090386],[-91.1786379,30.4091498],[-91.1785875,30.4091516],[-91.1785914,30.4092346],[-91.1784635,30.409239],[-91.1784596,30.4091561],[-91.1781458,30.4091671]]]}},{"type":"Feature","properties":{"fid":29,"osm_id":155026732,"name":"LSU Fieldhouse","building":"yes"},"geometry":{"type":"Polygon","coordinates":[[[-91.1860603,30.4155195],[-91.1860686,30.4155197],[-91.1860661,30.4156378],[-91.1860419,30.4156374],[-91.1860411,30.4156745],[-91.1862456,30.4156778],[-91.1862317,30.4163242],[-91.1860372,30.4163211],[-91.1860355,30.4163992],[-91.1853803,30.4163888],[-91.1853821,30.4163077],[-91.1851781,30.4163045],[-91.185192,30.4156575],[-91.1854058,30.4156609],[-91.1854066,30.4156238],[-91.1853816,30.4156234],[-91.1853841,30.4155065],[-91.1856244,30.4155103],[-91.1856255,30.4154575],[-91.1860615,30.4154645],[-91.1860603,30.4155195]]]}},{"type":"Feature","properties":{"fid":30,"osm_id":155026736,"name":"Life Sciences Building","building":"university"},"geometry":{"type":"Polygon","coordinates":[[[-91.176983,30.4112112],[-91.1766326,30.4112191],[-91.1766318,30.4111927],[-91.1765982,30.4111934],[-91.1765989,30.4112158],[-91.1765069,30.4112179],[-91.1765039,30.4111195],[-91.1765015,30.4110409],[-91.1765534,30.4110397],[-91.1765523,30.4110047],[-91.1764988,30.4110059],[-91.1764961,30.4109173],[-91.1765237,30.4109166],[-91.1765205,30.41081],[-91.1766675,30.4108066],[-91.1766707,30.4109115],[-91.1769737,30.4109047],[-91.1769747,30.4109384],[-91.1770347,30.410937],[-91.177032,30.410849],[-91.1778171,30.4108313],[-91.1778276,30.4111756],[-91.1770425,30.4111934],[-91.1770416,30.4111656],[-91.1769817,30.4111669],[-91.176983,30.4112112]]]}},{"type":"Feature","properties":{"fid":31,"osm_id":155026738,"name":"Reilly Theatre Swine Palace","building":"university"},"geometry":{"type":"Polygon","coordinates":[[[-91.1772718,30.4081091],[-91.1772575,30.408117],[-91.1772307,30.4081228],[-91.1772068,30.4081236],[-91.1771705,30.4081137],[-91.1771494,30.4081014],[-91.1771322,30.4080808],[-91.1771198,30.4080494],[-91.1771227,30.4080206],[-91.1771389,30.40799],[-91.1771617,30.4079727],[-91.1770976,30.4078933],[-91.1774181,30.4077008],[-91.1774784,30.4077755],[-91.1774859,30.4077682],[-91.1775098,30.4077608],[-91.1775327,30.407755],[-91.1775719,30.4077632],[-91.1775872,30.4077715],[-91.1776092,30.4077863],[-91.1776255,30.4078119],[-91.1776312,30.4078375],[-91.1776303,30.4078581],[-91.1776245,30.4078803],[-91.1776035,30.4079026],[-91.1775896,30.4079134],[-91.1776341,30.4079685],[-91.1773136,30.4081609],[-91.1772718,30.4081091]]]}},{"type":"Feature","properties":{"fid":32,"osm_id":155026739,"name":"Music and Dramatic Arts","building":"yes"},"geometry":{"type":"Polygon","coordinates":[[[-91.1799777,30.4162625],[-91.1799047,30.4162649],[-91.1799089,30.416361],[-91.1801156,30.4163542],[-91.1801238,30.4165385],[-91.1799172,30.4165453],[-91.1799183,30.4165698],[-91.1796337,30.4165792],[-91.179632,30.4165415],[-91.1793255,30.4165517],[-91.1793286,30.4166209],[-91.1791583,30.4166265],[-91.1791523,30.4164923],[-91.1789879,30.4164978],[-91.178976,30.4162316],[-91.1790938,30.4162277],[-91.1790921,30.4161886],[-91.1792936,30.4161819],[-91.1792935,30.4161799],[-91.1793229,30.4161789],[-91.1793212,30.4161395],[-91.1795453,30.4161321],[-91.1795471,30.4161715],[-91.179626,30.4161689],[-91.1796261,30.4161708],[-91.1798578,30.4161632],[-91.1798587,30.4161822],[-91.1799009,30.4161808],[-91.1799013,30.4161903],[-91.1799744,30.4161879],[-91.1799777,30.4162625]]]}},{"type":"Feature","properties":{"fid":33,"osm_id":155026743,"name":"Engineering, Research, and Development (ERAD) Building","building":"university"},"geometry":{"type":"Polygon","coordinates":[[[-91.1810779,30.4096513],[-91.1805348,30.4094072],[-91.1806953,30.4091414],[-91.1812385,30.4093855],[-91.1810779,30.4096513]]]}},{"type":"Feature","properties":{"fid":34,"osm_id":155026748,"name":null,"building":"university"},"geometry":{"type":"Polygon","coordinates":[[[-91.1794175,30.4108457],[-91.1790624,30.4108582],[-91.1790551,30.4107034],[-91.1794102,30.410691],[-91.1794175,30.4108457]]]}},{"type":"Feature","properties":{"fid":35,"osm_id":155026750,"name":null,"building":"yes"},"geometry":{"type":"Polygon","coordinates":[[[-91.1799855,30.4106708],[-91.179859,30.4106752],[-91.1798503,30.4104888],[-91.1799767,30.4104844],[-91.1799855,30.4106708]]]}},{"type":"Feature","properties":{"fid":36,"osm_id":155026754,"name":"Human Ecology","building":"university"},"geometry":{"type":"Polygon","coordinates":[[[-91.178388,30.4108766],[-91.1785403,30.4108664],[-91.1785569,30.4110509],[-91.1784087,30.4110609],[-91.1784115,30.4110854],[-91.1781725,30.4111054],[-91.1780941,30.4104093],[-91.1783331,30.4103893],[-91.178388,30.4108766]]]}},{"type":"Feature","properties":{"fid":37,"osm_id":155026755,"name":null,"building":"university"},"geometry":{"type":"Polygon","coordinates":[[[-91.1805672,30.412003],[-91.1803592,30.4120104],[-91.180349,30.4117958],[-91.1803381,30.4115683],[-91.1805462,30.411561],[-91.1805672,30.412003]]]}},{"type":"Feature","properties":{"fid":38,"osm_id":155026759,"name":"Electrical Engineering Building","building":"university"},"geometry":{"type":"Polygon","coordinates":[[[-91.1806546,30.4107347],[-91.1806144,30.4107361],[-91.1801841,30.4107511],[-91.1801661,30.4104046],[-91.1806325,30.4103916],[-91.1806546,30.4107347]]]}},{"type":"Feature","properties":{"fid":39,"osm_id":155026760,"name":"Facility Services Carpenter Shop","building":"university"},"geometry":{"type":"Polygon","coordinates":[[[-91.1812367,30.4092901],[-91.1807834,30.4090954],[-91.1808882,30.4089138],[-91.1813415,30.4091085],[-91.1812367,30.4092901]]]}},{"type":"Feature","properties":{"fid":40,"osm_id":155026770,"name":"Facility Services Warehouse 2","building":"warehouse"},"geometry":{"type":"Polygon","coordinates":[[[-91.1817496,30.4084311],[-91.1814513,30.4082975],[-91.1815564,30.4081228],[-91.1818548,30.4082564],[-91.1817496,30.4084311]]]}},{"type":"Feature","properties":{"fid":41,"osm_id":155026774,"name":"Fred C. Frey Computing Services Center","building":"yes"},"geometry":{"type":"Polygon","coordinates":[[[-91.1776356,30.4100954],[-91.177172,30.4101116],[-91.1771433,30.4095029],[-91.1775906,30.4094872],[-91.1776069,30.4094866],[-91.1776158,30.4096756],[-91.1776356,30.4100954]]]}},{"type":"Feature","properties":{"fid":42,"osm_id":155026776,"name":"Research Lab and Motor Pool","building":"university"},"geometry":{"type":"Polygon","coordinates":[[[-91.1787705,30.4081694],[-91.1782349,30.4081858],[-91.1782303,30.4080733],[-91.1787658,30.4080568],[-91.1787705,30.4081694]]]}},{"type":"Feature","properties":{"fid":43,"osm_id":155026780,"name":"Agricultural Engineering Shop","building":"university"},"geometry":{"type":"Polygon","coordinates":[[[-91.1789156,30.408422],[-91.1784366,30.4084388],[-91.1784298,30.408295],[-91.1789088,30.4082782],[-91.1789156,30.408422]]]}},{"type":"Feature","properties":{"fid":44,"osm_id":155026781,"name":null,"building":"yes"},"geometry":{"type":"Polygon","coordinates":[[[-91.1800558,30.4101622],[-91.1799028,30.4101676],[-91.1798935,30.409971],[-91.1800466,30.4099656],[-91.1800558,30.4101622]]]}},{"type":"Feature","properties":{"fid":45,"osm_id":155026782,"name":null,"building":"university"},"geometry":{"type":"Polygon","coordinates":[[[-91.1789335,30.4089368],[-91.1782958,30.4089592],[-91.1782789,30.4086009],[-91.1789166,30.4085786],[-91.1789335,30.4089368]]]}},{"type":"Feature","properties":{"fid":46,"osm_id":155026785,"name":null,"building":"yes"},"geometry":{"type":"Polygon","coordinates":[[[-91.1800558,30.4103955],[-91.1799098,30.4104006],[-91.1799017,30.4102276],[-91.1800477,30.4102224],[-91.1800558,30.4103955]]]}},{"type":"Feature","properties":{"fid":47,"osm_id":155026788,"name":"Administrative Services Bldg","building":"university"},"geometry":{"type":"Polygon","coordinates":[[[-91.1805481,30.4093659],[-91.1802708,30.4092373],[-91.1804203,30.4089976],[-91.1806976,30.4091263],[-91.1805481,30.4093659]]]}},{"type":"Feature","properties":{"fid":48,"osm_id":155026898,"name":null,"building":"university"},"geometry":{"type":"Polygon","coordinates":[[[-91.1802162,30.4096768],[-91.1801309,30.4099105],[-91.1799406,30.4098589],[-91.179821,30.4098264],[-91.1799075,30.4095894],[-91.179865,30.4095773],[-91.1798778,30.4095437],[-91.1799077,30.4094653],[-91.1805713,30.4096533],[-91.1805287,30.4097653],[-91.1802162,30.4096768]]]}},{"type":"Feature","properties":{"fid":49,"osm_id":155026899,"name":"Wilson Laboratories","building":"university"},"geometry":{"type":"Polygon","coordinates":[[[-91.177291,30.4089996],[-91.1768956,30.4090135],[-91.1768933,30.4089642],[-91.1765338,30.4089768],[-91.176526,30.40881],[-91.1770498,30.4087916],[-91.1770519,30.4088355],[-91.1772829,30.4088274],[-91.177291,30.4089996]]]}},{"type":"Feature","properties":{"fid":50,"osm_id":155026901,"name":"A. R. Choppin Hall - Chemistry","building":"university"},"geometry":{"type":"Polygon","coordinates":[[[-91.1774675,30.410559],[-91.1773254,30.4105622],[-91.1773262,30.4105879],[-91.1769882,30.4105955],[-91.1769756,30.4101829],[-91.1773136,30.4101753],[-91.1773161,30.410257],[-91.1774582,30.4102538],[-91.1774675,30.410559]]]}},{"type":"Feature","properties":{"fid":51,"osm_id":155026902,"name":null,"building":"yes"},"geometry":{"type":"Polygon","coordinates":[[[-91.1796434,30.410826],[-91.1795479,30.4108293],[-91.1795311,30.4104725],[-91.1796617,30.4104679],[-91.1796731,30.4107092],[-91.1797846,30.4107053],[-91.179886,30.4107017],[-91.1798922,30.4108341],[-91.1796442,30.4108427],[-91.1796434,30.410826]]]}},{"type":"Feature","properties":{"fid":52,"osm_id":155026906,"name":"Madison B. Sturgis Hall","building":"university"},"geometry":{"type":"Polygon","coordinates":[[[-91.1766758,30.40742],[-91.1765363,30.4072485],[-91.1766714,30.4071668],[-91.1766352,30.4071224],[-91.1769185,30.4069509],[-91.1773736,30.4075103],[-91.177095,30.4076789],[-91.1768155,30.4073354],[-91.1766758,30.40742]]]}},{"type":"Feature","properties":{"fid":53,"osm_id":155026910,"name":null,"building":"university"},"geometry":{"type":"Polygon","coordinates":[[[-91.1789956,30.410855],[-91.1786645,30.4108667],[-91.1786575,30.4107174],[-91.178708,30.4107156],[-91.1787002,30.4105509],[-91.1786953,30.4104468],[-91.1788684,30.4104408],[-91.178881,30.4107096],[-91.1789885,30.4107058],[-91.1789956,30.410855]]]}},{"type":"Feature","properties":{"fid":54,"osm_id":155037336,"name":"Peabody Hall","building":"university"},"geometry":{"type":"Polygon","coordinates":[[[-91.1805117,30.4152062],[-91.1804851,30.4148069],[-91.1807099,30.4147958],[-91.1807104,30.4148024],[-91.1810843,30.414792],[-91.1810833,30.4147628],[-91.1812779,30.4147575],[-91.1812828,30.4148916],[-91.1812875,30.4150201],[-91.1810929,30.4150254],[-91.181092,30.4150014],[-91.1810916,30.4149911],[-91.1807236,30.4150014],[-91.1807366,30.415195],[-91.1807327,30.4151952],[-91.180735,30.4152362],[-91.1805519,30.4152439],[-91.1805496,30.4152043],[-91.1805117,30.4152062]]]}},{"type":"Feature","properties":{"fid":55,"osm_id":155037342,"name":null,"building":"university"},"geometry":{"type":"Polygon","coordinates":[[[-91.1818272,30.4104932],[-91.1819537,30.4107937],[-91.1817236,30.4108658],[-91.1815541,30.410463],[-91.1817841,30.4103909],[-91.181787,30.4103978],[-91.1819657,30.4103396],[-91.1819668,30.4103421],[-91.1820387,30.4103189],[-91.182244,30.4107909],[-91.1821084,30.4108348],[-91.1819434,30.4104553],[-91.1818272,30.4104932]]]}},{"type":"Feature","properties":{"fid":56,"osm_id":155037343,"name":"Residential College One West Hall","building":"dormitory"},"geometry":{"type":"Polygon","coordinates":[[[-91.1835949,30.4161461],[-91.1835167,30.4160207],[-91.1834924,30.4159823],[-91.1834279,30.4160115],[-91.1833581,30.4159043],[-91.1837818,30.4157085],[-91.1838842,30.4158829],[-91.1837788,30.4159287],[-91.1837653,30.4159059],[-91.183599,30.415981],[-91.1836718,30.416107],[-91.1838545,30.4160173],[-91.1838317,30.4159723],[-91.1839447,30.4159298],[-91.1839664,30.4159728],[-91.1839679,30.4159723],[-91.1840176,30.4160655],[-91.1840154,30.4160663],[-91.1840529,30.4161203],[-91.1836189,30.4163224],[-91.1835498,30.4162131],[-91.1836156,30.4161764],[-91.1835949,30.4161461]]]}},{"type":"Feature","properties":{"fid":57,"osm_id":155037345,"name":"Sea Grant Building","building":"university"},"geometry":{"type":"Polygon","coordinates":[[[-91.1821407,30.4084664],[-91.1822272,30.4082892],[-91.1825442,30.4084276],[-91.1825313,30.4084583],[-91.1826706,30.408523],[-91.1826077,30.4086235],[-91.1825631,30.4086067],[-91.1825316,30.4086726],[-91.1824821,30.408748],[-91.1822683,30.4086713],[-91.1823339,30.4085486],[-91.1821407,30.4084664]]]}},{"type":"Feature","properties":{"fid":58,"osm_id":155037355,"name":"Residential College One South Hall","building":"dormitory"},"geometry":{"type":"Polygon","coordinates":[[[-91.1826469,30.4156975],[-91.1827261,30.4157052],[-91.1827266,30.415702],[-91.1830279,30.4157345],[-91.183027,30.4157411],[-91.183052,30.4157298],[-91.1830452,30.4157187],[-91.1833798,30.415565],[-91.1834696,30.4157105],[-91.183135,30.4158641],[-91.1831018,30.4158104],[-91.1830127,30.4158509],[-91.1830089,30.4158795],[-91.1830069,30.4158793],[-91.1830032,30.4159048],[-91.1827019,30.4158723],[-91.1827052,30.41585],[-91.1826279,30.4158425],[-91.1826469,30.4156975]]]}},{"type":"Feature","properties":{"fid":59,"osm_id":155037357,"name":"Johnston Hall","building":"university"},"geometry":{"type":"Polygon","coordinates":[[[-91.1821143,30.411489],[-91.18186,30.4115901],[-91.1819482,30.4117525],[-91.1821912,30.4116523],[-91.1822571,30.4117712],[-91.182013,30.4118718],[-91.1820286,30.4119004],[-91.1818912,30.4119559],[-91.1818762,30.4119282],[-91.1818525,30.4119379],[-91.1817867,30.4118191],[-91.1818113,30.4118089],[-91.1817222,30.4116449],[-91.1816949,30.4116557],[-91.1816353,30.4115443],[-91.1816618,30.4115337],[-91.1816473,30.4115069],[-91.1817846,30.4114514],[-91.1817996,30.411479],[-91.1820547,30.4113775],[-91.1821143,30.411489]]]}},{"type":"Feature","properties":{"fid":60,"osm_id":155037359,"name":"Hatcher Hall","building":"university"},"geometry":{"type":"Polygon","coordinates":[[[-91.1823386,30.4125719],[-91.1823521,30.4126027],[-91.1822036,30.4126511],[-91.1821895,30.4126191],[-91.182153,30.4126306],[-91.1820987,30.412503],[-91.1821338,30.4124919],[-91.1819951,30.4121757],[-91.1819475,30.4121899],[-91.1819001,30.4120713],[-91.1819437,30.4120584],[-91.1819269,30.41202],[-91.1820755,30.4119716],[-91.1820939,30.4120137],[-91.1823404,30.4119405],[-91.1823878,30.412059],[-91.1821454,30.4121311],[-91.1822829,30.4124448],[-91.1825449,30.4123619],[-91.1825992,30.4124895],[-91.1823386,30.4125719]]]}},{"type":"Feature","properties":{"fid":61,"osm_id":155037362,"name":"Energy, Coast and Environment Building","building":"university"},"geometry":{"type":"Polygon","coordinates":[[[-91.184097,30.4084339],[-91.1841017,30.4084279],[-91.1841166,30.4084128],[-91.184133,30.408399],[-91.184151,30.4083866],[-91.1841702,30.4083758],[-91.1841906,30.4083666],[-91.1842119,30.4083593],[-91.184234,30.4083537],[-91.1842566,30.40835],[-91.1842795,30.4083483],[-91.1842859,30.4083483],[-91.1843009,30.4083067],[-91.1844319,30.4083418],[-91.1844175,30.4083815],[-91.1844301,30.4083888],[-91.1844478,30.4084015],[-91.1844643,30.408416],[-91.1844791,30.4084318],[-91.184492,30.4084488],[-91.1845028,30.4084668],[-91.1845115,30.4084857],[-91.1845179,30.4085052],[-91.1845221,30.4085252],[-91.1845239,30.4085455],[-91.1845238,30.4085485],[-91.1845472,30.4085547],[-91.1845054,30.4086704],[-91.1844835,30.4086645],[-91.1844726,30.4086776],[-91.184457,30.4086928],[-91.1844397,30.4087066],[-91.1844209,30.4087188],[-91.1844008,30.4087294],[-91.1843803,30.4087379],[-91.1843589,30.4087447],[-91.1843369,30.4087496],[-91.1843144,30.4087527],[-91.1842916,30.4087539],[-91.1842689,30.4087532],[-91.1842546,30.4087515],[-91.1842368,30.4088008],[-91.1846063,30.4089],[-91.1845893,30.4089471],[-91.1845872,30.408953],[-91.1846137,30.4089602],[-91.1846141,30.4089721],[-91.1846137,30.4089841],[-91.1846126,30.408996],[-91.1846109,30.4090078],[-91.1846085,30.4090196],[-91.1846053,30.4090313],[-91.1846016,30.4090428],[-91.1845971,30.4090541],[-91.184592,30.4090652],[-91.1845863,30.4090761],[-91.1845799,30.4090867],[-91.1845729,30.4090971],[-91.1845654,30.4091071],[-91.1845572,30.4091168],[-91.1845307,30.4091097],[-91.1845251,30.4091253],[-91.1845106,30.4091653],[-91.1838205,30.40898],[-91.1838168,30.4089902],[-91.1836571,30.4089474],[-91.1836608,30.4089372],[-91.183494,30.4088924],[-91.1834835,30.4089214],[-91.183449,30.4089121],[-91.1833232,30.4088784],[-91.1833336,30.4088494],[-91.1830073,30.4087618],[-91.1830274,30.4087062],[-91.1830084,30.4087011],[-91.1830074,30.4086909],[-91.183007,30.4086807],[-91.1830072,30.4086705],[-91.183008,30.4086603],[-91.1830094,30.4086502],[-91.1830115,30.4086401],[-91.1830141,30.4086302],[-91.1830173,30.4086203],[-91.1830211,30.4086107],[-91.1830255,30.4086012],[-91.1830305,30.4085919],[-91.1830359,30.4085829],[-91.183042,30.4085741],[-91.1830485,30.4085656],[-91.1830556,30.4085574],[-91.1830631,30.4085495],[-91.1830821,30.4085546],[-91.183103,30.4084966],[-91.18416,30.4087802],[-91.1841781,30.4087299],[-91.184162,30.4087219],[-91.1841434,30.4087106],[-91.1841262,30.4086977],[-91.1841105,30.4086834],[-91.1840965,30.408668],[-91.1840843,30.4086514],[-91.184074,30.4086339],[-91.1840657,30.4086156],[-91.1840595,30.4085966],[-91.1840555,30.4085773],[-91.1840536,30.4085576],[-91.1840538,30.4085492],[-91.1840272,30.4085421],[-91.1840689,30.4084264],[-91.184097,30.4084339]]]}},{"type":"Feature","properties":{"fid":62,"osm_id":155037365,"name":"Hodges Hall","building":"university"},"geometry":{"type":"Polygon","coordinates":[[[-91.1822497,30.4127594],[-91.1822392,30.4127299],[-91.1823795,30.4126929],[-91.182391,30.412725],[-91.1826539,30.4126555],[-91.1826947,30.4127703],[-91.1824337,30.4128392],[-91.1824483,30.4128801],[-91.1825569,30.4128514],[-91.1825927,30.4129522],[-91.1824859,30.4129804],[-91.1824989,30.4130171],[-91.182767,30.4129463],[-91.1828105,30.4130688],[-91.1825445,30.4131391],[-91.1825547,30.4131676],[-91.1824144,30.4132046],[-91.1824039,30.4131751],[-91.1823675,30.4131847],[-91.182324,30.4130622],[-91.1823573,30.4130534],[-91.1822933,30.4128734],[-91.1822609,30.412882],[-91.1822201,30.4127672],[-91.1822497,30.4127594]]]}},{"type":"Feature","properties":{"fid":63,"osm_id":155037366,"name":"Military Science Aerospace Studies","building":"university"},"geometry":{"type":"Polygon","coordinates":[[[-91.1819868,30.4096782],[-91.1819939,30.4096636],[-91.181988,30.4096616],[-91.1821763,30.4092493],[-91.1823869,30.4093209],[-91.1821986,30.4097331],[-91.182079,30.4096925],[-91.1820716,30.4097077],[-91.182415,30.4098268],[-91.1823476,30.4099711],[-91.1821001,30.4098852],[-91.1820808,30.4099287],[-91.1820872,30.4099311],[-91.1820278,30.4100512],[-91.1818215,30.4099753],[-91.1818809,30.4098552],[-91.1819028,30.4098632],[-91.1819207,30.4098229],[-91.1817902,30.4097776],[-91.1816814,30.4097399],[-91.1817501,30.4095961],[-91.1817905,30.4096101],[-91.1818455,30.4094841],[-91.1820196,30.4095406],[-91.1819631,30.40967],[-91.1819868,30.4096782]]]}},{"type":"Feature","properties":{"fid":64,"osm_id":155037367,"name":"LSU Student Union","building":"university"},"geometry":{"type":"Polygon","coordinates":[[[-91.1773784,30.4122123],[-91.1773804,30.4122643],[-91.1775955,30.4122565],[-91.1776078,30.4125091],[-91.1775671,30.4125106],[-91.1775723,30.4125987],[-91.1776028,30.4125973],[-91.1776204,30.4129921],[-91.1775922,30.4129922],[-91.1775942,30.4130426],[-91.1767094,30.4130749],[-91.1767035,30.412938],[-91.1765414,30.4129406],[-91.1765293,30.4123775],[-91.1766511,30.4123755],[-91.176647,30.4122908],[-91.17685,30.4122835],[-91.1768478,30.4122282],[-91.1773784,30.4122123]]]}},{"type":"Feature","properties":{"fid":65,"osm_id":155037382,"name":"Energy, Coast and Environment Building","building":"university"},"geometry":{"type":"Polygon","coordinates":[[[-91.1830179,30.4089317],[-91.1829855,30.4090213],[-91.1828139,30.4089753],[-91.1828463,30.4088856],[-91.1830179,30.4089317]]]}},{"type":"Feature","properties":{"fid":66,"osm_id":155037402,"name":"P. G. T. Beauregard House","building":"dormitory"},"geometry":{"type":"Polygon","coordinates":[[[-91.1815801,30.4159795],[-91.1813315,30.4165105],[-91.1812314,30.4164665],[-91.1814779,30.4159406],[-91.1815801,30.4159795]]]}},{"type":"Feature","properties":{"fid":67,"osm_id":155037404,"name":null,"building":"yes"},"geometry":{"type":"Polygon","coordinates":[[[-91.1848447,30.4095413],[-91.1848766,30.4094463],[-91.1849695,30.4094695],[-91.1849376,30.4095645],[-91.1848447,30.4095413]]]}},{"type":"Feature","properties":{"fid":68,"osm_id":155037408,"name":null,"building":"yes"},"geometry":{"type":"Polygon","coordinates":[[[-91.181558,30.4110759],[-91.1812799,30.4111604],[-91.181149,30.4108397],[-91.1814271,30.4107552],[-91.181558,30.4110759]]]}},{"type":"Feature","properties":{"fid":69,"osm_id":155037411,"name":"Sea Grant Storage B","building":"university"},"geometry":{"type":"Polygon","coordinates":[[[-91.1831919,30.4089666],[-91.1833461,30.409008],[-91.1833141,30.4090967],[-91.1831599,30.4090553],[-91.1831919,30.4089666]]]}},{"type":"Feature","properties":{"fid":70,"osm_id":155037413,"name":"Pentagon Service Building","building":"yes"},"geometry":{"type":"Polygon","coordinates":[[[-91.1816294,30.4161494],[-91.1816261,30.4160468],[-91.182052,30.4160369],[-91.1820552,30.4161394],[-91.1816294,30.4161494]]]}},{"type":"Feature","properties":{"fid":71,"osm_id":155037418,"name":"Zachary Taylor House","building":"dormitory"},"geometry":{"type":"Polygon","coordinates":[[[-91.1820842,30.4159745],[-91.182186,30.4159274],[-91.1824815,30.4164021],[-91.1823797,30.4164492],[-91.1820842,30.4159745]]]}},{"type":"Feature","properties":{"fid":72,"osm_id":155037450,"name":"Center for Wetland Resources","building":"university"},"geometry":{"type":"Polygon","coordinates":[[[-91.1825316,30.4086726],[-91.182656,30.4087282],[-91.1824085,30.4091407],[-91.182284,30.4090851],[-91.1824821,30.408748],[-91.1825316,30.4086726]]]}},{"type":"Feature","properties":{"fid":73,"osm_id":155037452,"name":"Louisiana State University Police","building":"yes"},"geometry":{"type":"Polygon","coordinates":[[[-91.1830896,30.4101935],[-91.1830013,30.4101791],[-91.1830348,30.410027],[-91.1830037,30.4100219],[-91.1830233,30.4099332],[-91.1830543,30.4099383],[-91.1830777,30.4098319],[-91.1834197,30.4098879],[-91.1833433,30.4102351],[-91.183259,30.4102213],[-91.1832518,30.4102538],[-91.1830824,30.4102261],[-91.1830896,30.4101935]]]}},{"type":"Feature","properties":{"fid":74,"osm_id":155037455,"name":"Sea Grant Shop","building":"university"},"geometry":{"type":"Polygon","coordinates":[[[-91.1840485,30.4092004],[-91.1839717,30.409413],[-91.1833963,30.4092586],[-91.183473,30.409046],[-91.1840485,30.4092004]]]}},{"type":"Feature","properties":{"fid":75,"osm_id":155037465,"name":"John A. Lejeune House","building":"dormitory"},"geometry":{"type":"Polygon","coordinates":[[[-91.181893,30.4168514],[-91.182371,30.4164917],[-91.182443,30.4165628],[-91.181965,30.4169226],[-91.181893,30.4168514]]]}},{"type":"Feature","properties":{"fid":76,"osm_id":155037471,"name":"Sea Grant Storage A","building":"university"},"geometry":{"type":"Polygon","coordinates":[[[-91.1832918,30.4091869],[-91.1832598,30.4092756],[-91.1827957,30.409151],[-91.1828277,30.4090624],[-91.1832918,30.4091869]]]}},{"type":"Feature","properties":{"fid":77,"osm_id":155037491,"name":"Planning Design and Construction","building":"university"},"geometry":{"type":"Polygon","coordinates":[[[-91.1818046,30.4094608],[-91.1816377,30.4094037],[-91.1817767,30.4091014],[-91.1819031,30.4091446],[-91.1819034,30.409144],[-91.1820364,30.409186],[-91.1819611,30.4093634],[-91.1818636,30.4093326],[-91.1818046,30.4094608]]]}},{"type":"Feature","properties":{"fid":78,"osm_id":156100171,"name":"Audubon Hall","building":"university"},"geometry":{"type":"Polygon","coordinates":[[[-91.1803849,30.4127961],[-91.1804685,30.4127947],[-91.1811019,30.4127698],[-91.1810937,30.4126149],[-91.1804629,30.4126397],[-91.1804606,30.4125752],[-91.180458,30.4125029],[-91.1803731,30.412506],[-91.1803773,30.4125769],[-91.180381,30.4126385],[-91.1803849,30.4127961]]]}},{"type":"Feature","properties":{"fid":79,"osm_id":156100178,"name":"Prescott Hall","building":"university"},"geometry":{"type":"Polygon","coordinates":[[[-91.1804117,30.4136386],[-91.1804942,30.4136372],[-91.1804936,30.413609],[-91.1811535,30.4135981],[-91.1811502,30.4134495],[-91.1804926,30.4134603],[-91.1804078,30.4134617],[-91.1804117,30.4136386]]]}},{"type":"Feature","properties":{"fid":80,"osm_id":156100189,"name":"Stubbs Hall","building":"university"},"geometry":{"type":"Polygon","coordinates":[[[-91.1804078,30.4134617],[-91.1804097,30.4133764],[-91.180405,30.413285],[-91.1803996,30.4131361],[-91.1804807,30.4131338],[-91.1811314,30.4131153],[-91.1811371,30.4132643],[-91.1804861,30.4132828],[-91.1804926,30.4134603],[-91.1804078,30.4134617]]]}},{"type":"Feature","properties":{"fid":81,"osm_id":156100201,"name":"Dodson Auditorium","building":"university"},"geometry":{"type":"Polygon","coordinates":[[[-91.1803996,30.4131361],[-91.1804807,30.4131338],[-91.1804796,30.4131024],[-91.1805032,30.4131029],[-91.1805529,30.4130798],[-91.1806084,30.4130336],[-91.1806256,30.4129874],[-91.1806273,30.4129666],[-91.1806294,30.4129412],[-91.1806084,30.4128934],[-91.1805682,30.4128522],[-91.1805204,30.4128258],[-91.1804695,30.4128232],[-91.1804685,30.4127947],[-91.1803849,30.4127961],[-91.1803902,30.412918],[-91.1803986,30.4130383],[-91.1803996,30.4131361]]]}},{"type":"Feature","properties":{"fid":82,"osm_id":156100211,"name":null,"building":"yes"},"geometry":{"type":"Polygon","coordinates":[[[-91.1796271,30.4121458],[-91.179629,30.4122061],[-91.179631,30.4122714],[-91.179886,30.4122656],[-91.1798868,30.4122912],[-91.1800808,30.4122868],[-91.18008,30.4122612],[-91.1803351,30.4122554],[-91.1803331,30.4121902],[-91.1803313,30.4121298],[-91.1803297,30.4120779],[-91.1803026,30.4120785],[-91.1800746,30.4120836],[-91.1800739,30.4120614],[-91.1800128,30.4120628],[-91.1799778,30.4120635],[-91.1799457,30.4120642],[-91.1798799,30.4120657],[-91.1798806,30.412088],[-91.1796256,30.4120938],[-91.1796271,30.4121458]]]}},{"type":"Feature","properties":{"fid":83,"osm_id":156100215,"name":"Coates Hall","building":"university"},"geometry":{"type":"Polygon","coordinates":[[[-91.1795343,30.4126703],[-91.1796232,30.4126683],[-91.1796467,30.4126678],[-91.1796515,30.4128252],[-91.1796309,30.4128257],[-91.1796386,30.4130787],[-91.1796603,30.4130782],[-91.179665,30.4132323],[-91.1796433,30.4132328],[-91.1796511,30.4134905],[-91.1796802,30.4134898],[-91.1796853,30.413658],[-91.1795213,30.4136617],[-91.1795212,30.413656],[-91.1794479,30.4136577],[-91.179418,30.4126733],[-91.1794905,30.4126715],[-91.1795343,30.4126703]]]}},{"type":"Feature","properties":{"fid":84,"osm_id":418999632,"name":null,"building":"yes"},"geometry":{"type":"Polygon","coordinates":[[[-91.19358,30.4142536],[-91.1938937,30.414307],[-91.1938985,30.4142862],[-91.1939512,30.4142952],[-91.1939464,30.414316],[-91.1939889,30.4143232],[-91.1939434,30.4145216],[-91.1934719,30.4144412],[-91.1935173,30.4142429],[-91.1935271,30.4142446],[-91.1935319,30.4142237],[-91.1935848,30.4142328],[-91.19358,30.4142536]]]}},{"type":"Feature","properties":{"fid":85,"osm_id":418999636,"name":null,"building":"yes"},"geometry":{"type":"Polygon","coordinates":[[[-91.1928711,30.4150406],[-91.192655,30.4150038],[-91.1927611,30.414541],[-91.1929771,30.4145778],[-91.1928711,30.4150406]]]}},{"type":"Feature","properties":{"fid":86,"osm_id":418999637,"name":null,"building":"yes"},"geometry":{"type":"Polygon","coordinates":[[[-91.1920583,30.4152522],[-91.191931,30.4152305],[-91.192006,30.414903],[-91.1921334,30.4149247],[-91.1920583,30.4152522]]]}},{"type":"Feature","properties":{"fid":87,"osm_id":418999640,"name":null,"building":"yes"},"geometry":{"type":"Polygon","coordinates":[[[-91.1926981,30.4145306],[-91.192536,30.4152377],[-91.1923225,30.4152014],[-91.1924846,30.4144942],[-91.1926981,30.4145306]]]}},{"type":"Feature","properties":{"fid":88,"osm_id":418999642,"name":null,"building":"yes"},"geometry":{"type":"Polygon","coordinates":[[[-91.1923427,30.4146624],[-91.1921062,30.4146221],[-91.1921753,30.4143206],[-91.1923286,30.4143467],[-91.1923189,30.414389],[-91.1924021,30.4144032],[-91.1923427,30.4146624]]]}},{"type":"Feature","properties":{"fid":89,"osm_id":418999643,"name":null,"building":"yes"},"geometry":{"type":"Polygon","coordinates":[[[-91.191998,30.4148047],[-91.1918407,30.4147779],[-91.1919337,30.414372],[-91.1920612,30.4143938],[-91.1920423,30.414476],[-91.1920722,30.414481],[-91.191998,30.4148047]]]}},{"type":"Feature","properties":{"fid":90,"osm_id":425641646,"name":"Campus Federal Credit Union","building":"yes"},"geometry":{"type":"Polygon","coordinates":[[[-91.1833822,30.4080138],[-91.1833549,30.4080901],[-91.1834749,30.408122],[-91.1834456,30.4082044],[-91.1833158,30.4081699],[-91.1832648,30.4083128],[-91.1829645,30.4082331],[-91.1829898,30.4081622],[-91.182867,30.4081296],[-91.1829493,30.4078989],[-91.1833822,30.4080138]]]}},{"type":"Feature","properties":{"fid":91,"osm_id":425641647,"name":"Engineering Laboratory Annex Building","building":"school"},"geometry":{"type":"Polygon","coordinates":[[[-91.1812538,30.407374],[-91.1811769,30.4075106],[-91.181355,30.4075853],[-91.1812131,30.4078372],[-91.1811787,30.4078228],[-91.181137,30.4078969],[-91.1819618,30.4082486],[-91.182149,30.4079233],[-91.1820753,30.4078918],[-91.1821114,30.4078291],[-91.1818291,30.4077083],[-91.1818706,30.4076361],[-91.1812538,30.407374]]]}},{"type":"Feature","properties":{"fid":92,"osm_id":425641648,"name":null,"building":"university"},"geometry":{"type":"Polygon","coordinates":[[[-91.1828803,30.4097832],[-91.1828316,30.4098874],[-91.182701,30.409842],[-91.1827496,30.4097378],[-91.1828803,30.4097832]]]}},{"type":"Feature","properties":{"fid":93,"osm_id":425641649,"name":null,"building":"university"},"geometry":{"type":"Polygon","coordinates":[[[-91.1826988,30.4097369],[-91.1826272,30.4098844],[-91.1825194,30.4098455],[-91.1825909,30.409698],[-91.1826988,30.4097369]]]}},{"type":"Feature","properties":{"fid":94,"osm_id":425641650,"name":"Ecology Greenhouse","building":"university"},"geometry":{"type":"Polygon","coordinates":[[[-91.1826976,30.4100499],[-91.1826509,30.4100319],[-91.1826287,30.4100748],[-91.1824967,30.410024],[-91.1825659,30.4098901],[-91.1826188,30.4099105],[-91.1826444,30.4098608],[-91.1827197,30.4098898],[-91.1826713,30.4099834],[-91.182722,30.4100029],[-91.1826976,30.4100499]]]}},{"type":"Feature","properties":{"fid":95,"osm_id":425641651,"name":"Vegetation Research Laboratory","building":"university"},"geometry":{"type":"Polygon","coordinates":[[[-91.1827504,30.4099132],[-91.1827258,30.4099711],[-91.1827822,30.409989],[-91.1828068,30.409931],[-91.1827504,30.4099132]]]}},{"type":"Feature","properties":{"fid":96,"osm_id":425641653,"name":"Journalism Building","building":"university"},"geometry":{"type":"Polygon","coordinates":[[[-91.1828407,30.4137042],[-91.1826798,30.4137648],[-91.1826193,30.4136453],[-91.1825921,30.4136556],[-91.1825408,30.4135543],[-91.1825694,30.4135436],[-91.1825059,30.4134183],[-91.182667,30.4133575],[-91.182689,30.4134021],[-91.1827405,30.4133837],[-91.1827335,30.4133633],[-91.1828381,30.4133263],[-91.1828649,30.4133783],[-91.1828944,30.4133899],[-91.1829239,30.4134118],[-91.1829507,30.413435],[-91.1829695,30.4134743],[-91.1829776,30.413509],[-91.1829722,30.4135414],[-91.1829588,30.4135622],[-91.1829883,30.4136177],[-91.1828904,30.4136594],[-91.1828721,30.4136367],[-91.1828163,30.4136569],[-91.1828407,30.4137042]]]}},{"type":"Feature","properties":{"fid":97,"osm_id":425641654,"name":"Allen Hall","building":"university"},"geometry":{"type":"Polygon","coordinates":[[[-91.1812275,30.4136807],[-91.180433,30.4137044],[-91.1804485,30.4139726],[-91.1804573,30.4140347],[-91.1805233,30.414035],[-91.180523,30.4140277],[-91.181036,30.4140093],[-91.1810375,30.4140418],[-91.1812446,30.4140343],[-91.1812275,30.4136807]]]}},{"type":"Feature","properties":{"fid":98,"osm_id":425641658,"name":"School of Music","building":"university"},"geometry":{"type":"Polygon","coordinates":[[[-91.1786343,30.416758],[-91.1785932,30.4167265],[-91.1785932,30.4165727],[-91.1785738,30.4165548],[-91.1786296,30.4165098],[-91.1785228,30.4164113],[-91.1784616,30.4164607],[-91.1784289,30.4164305],[-91.1783647,30.4164331],[-91.1781864,30.4166046],[-91.1782588,30.4166606],[-91.1781473,30.4167678],[-91.1782376,30.4168376],[-91.1781873,30.4168859],[-91.178338,30.4170025],[-91.1782215,30.4171144],[-91.1783481,30.4172124],[-91.1784699,30.4170954],[-91.1785087,30.4171255],[-91.1785744,30.4171232],[-91.1786348,30.4170689],[-91.1786361,30.4170307],[-91.1785596,30.4169532],[-91.178506,30.4169532],[-91.1784652,30.4169219],[-91.1786343,30.416758]]]}},{"type":"Feature","properties":{"fid":99,"osm_id":425646976,"name":"Military Air Science Garage","building":"university"},"geometry":{"type":"Polygon","coordinates":[[[-91.182763,30.4096108],[-91.1826797,30.4095823],[-91.1827057,30.4095258],[-91.182789,30.4095543],[-91.182763,30.4096108]]]}},{"type":"Feature","properties":{"fid":100,"osm_id":425646977,"name":"Business Education Rotunda","building":"university"},"geometry":{"type":"Polygon","coordinates":[[[-91.183114,30.4097857],[-91.1829975,30.4097667],[-91.1830117,30.4097019],[-91.1831282,30.4097209],[-91.183114,30.4097857]]]}},{"type":"Feature","properties":{"fid":101,"osm_id":425646978,"name":"Carpenter Shop Lumber Storage (715)","building":"warehouse"},"geometry":{"type":"Polygon","coordinates":[[[-91.18081,30.4090188],[-91.1807409,30.4089865],[-91.1808335,30.4088391],[-91.1809026,30.4088715],[-91.18081,30.4090188]]]}},{"type":"Feature","properties":{"fid":102,"osm_id":425646979,"name":"Agricultural Engineering Storage","building":"warehouse"},"geometry":{"type":"Polygon","coordinates":[[[-91.1783842,30.4084596],[-91.1783364,30.408461],[-91.1783339,30.4083952],[-91.1783817,30.4083938],[-91.1783842,30.4084596]]]}},{"type":"Feature","properties":{"fid":103,"osm_id":425651121,"name":"North Hall","building":"dormitory"},"geometry":{"type":"Polygon","coordinates":[[[-91.1838473,30.4163381],[-91.1834838,30.4165075],[-91.1835187,30.4165654],[-91.1834168,30.4166093],[-91.1836474,30.4169563],[-91.1837145,30.416962],[-91.1837038,30.4170719],[-91.1836837,30.4170696],[-91.1836796,30.4171251],[-91.1837521,30.4171297],[-91.1837453,30.4171806],[-91.1838821,30.4171945],[-91.1839599,30.4165307],[-91.1838473,30.4163381]]]}},{"type":"Feature","properties":{"fid":104,"osm_id":466208352,"name":"LSU Sport Shop","building":"yes"},"geometry":{"type":"Polygon","coordinates":[[[-91.1854941,30.4134024],[-91.1853362,30.413401],[-91.1853382,30.4132372],[-91.1852603,30.4132366],[-91.1852619,30.4131017],[-91.1853498,30.4131025],[-91.1853501,30.4130775],[-91.1854466,30.4130784],[-91.185447,30.413047],[-91.1856275,30.4130486],[-91.1856255,30.4132172],[-91.1854963,30.413216],[-91.1854941,30.4134024]]]}},{"type":"Feature","properties":{"fid":105,"osm_id":550888703,"name":null,"building":"yes"},"geometry":{"type":"Polygon","coordinates":[[[-91.1860141,30.4126153],[-91.1854482,30.4126032],[-91.185453,30.4124366],[-91.1860189,30.4124486],[-91.1860141,30.4126153]]]}},{"type":"Feature","properties":{"fid":106,"osm_id":634215120,"name":null,"building":"stadium"},"geometry":{"type":"Polygon","coordinates":[[[-91.186485,30.4149962],[-91.1862631,30.4149882],[-91.1862816,30.4141167],[-91.1862539,30.4140024],[-91.18622,30.4139227],[-91.186143,30.4138324],[-91.1861984,30.4137912],[-91.1862878,30.4139068],[-91.1863432,30.4140237],[-91.1863617,30.41413],[-91.1863648,30.4141964],[-91.1865065,30.4142017],[-91.186485,30.4149962]]]}},{"type":"Feature","properties":{"fid":107,"osm_id":657019382,"name":"Animal And Food Science Laboratory","building":"university"},"geometry":{"type":"Polygon","coordinates":[[[-91.1793653,30.4105207],[-91.1793513,30.4101501],[-91.1785994,30.4101904],[-91.1786444,30.4105581],[-91.1786912,30.4105535],[-91.178685,30.4104412],[-91.1788894,30.4104322],[-91.1788978,30.4105418],[-91.1790104,30.4105368],[-91.1791598,30.4105287],[-91.1792672,30.4105287],[-91.1793233,30.4105287],[-91.1793653,30.4105207]]]}},{"type":"Feature","properties":{"fid":108,"osm_id":727209494,"name":"Nicholson Hall","building":"university"},"geometry":{"type":"Polygon","coordinates":[[[-91.1796131,30.4123119],[-91.1796194,30.4125342],[-91.1796217,30.4126195],[-91.1796232,30.4126683],[-91.1795343,30.4126703],[-91.1795329,30.4126262],[-91.1795303,30.4125362],[-91.1794181,30.4125387],[-91.1794174,30.412516],[-91.1792042,30.4125208],[-91.1792048,30.4125408],[-91.1790241,30.4125492],[-91.1790312,30.4126854],[-91.1789768,30.4127378],[-91.1788576,30.4127424],[-91.1788577,30.4127502],[-91.178617,30.4127587],[-91.178617,30.4127509],[-91.178452,30.4127538],[-91.1784515,30.4127436],[-91.1784416,30.4127424],[-91.1784322,30.4127397],[-91.1784242,30.4127351],[-91.1784178,30.4127297],[-91.1784123,30.4127245],[-91.1784084,30.4127183],[-91.1784059,30.4127113],[-91.1784055,30.4127056],[-91.1783971,30.4127056],[-91.178396,30.4126822],[-91.1783782,30.412683],[-91.1783575,30.4123494],[-91.1788348,30.4123387],[-91.1788355,30.4123622],[-91.1788873,30.412361],[-91.1789971,30.4123585],[-91.1789963,30.412333],[-91.1791983,30.4123284],[-91.1791991,30.4123539],[-91.1794124,30.4123491],[-91.1794114,30.4123165],[-91.1795235,30.4123139],[-91.1795222,30.4122704],[-91.1795185,30.4121482],[-91.1795619,30.4121472],[-91.1796074,30.4121462],[-91.1796271,30.4121458],[-91.179629,30.4122061],[-91.1796092,30.4122066],[-91.1796131,30.4123119]]]}},{"type":"Feature","properties":{"fid":109,"osm_id":863392082,"name":"Landolt Astronomical Observatory","building":"university"},"geometry":{"type":"Polygon","coordinates":[[[-91.1791612,30.412503],[-91.1791714,30.4124946],[-91.1791683,30.4123977],[-91.1791563,30.4123862],[-91.1790444,30.4123908],[-91.1790342,30.4124],[-91.1790391,30.4124973],[-91.1790497,30.4125068],[-91.1791612,30.412503]]]}},{"type":"Feature","properties":{"fid":110,"osm_id":863392085,"name":"Union Theater","building":"yes"},"geometry":{"type":"Polygon","coordinates":[[[-91.1776204,30.4129921],[-91.1776028,30.4125973],[-91.1776018,30.4125744],[-91.177985,30.4125608],[-91.1779979,30.4128002],[-91.1780429,30.4127985],[-91.1780557,30.4130108],[-91.1780044,30.4130299],[-91.1779433,30.4130467],[-91.1778796,30.4130581],[-91.1778248,30.413062],[-91.1777619,30.4130581],[-91.1777009,30.4130497],[-91.1776221,30.4130276],[-91.1776204,30.4129921]]]}},{"type":"Feature","properties":{"fid":111,"osm_id":866111015,"name":null,"building":"commercial"},"geometry":{"type":"Polygon","coordinates":[[[-91.1871646,30.4133691],[-91.1872636,30.4133583],[-91.1872626,30.4133531],[-91.1872931,30.4133485],[-91.1872955,30.4133649],[-91.1874608,30.413345],[-91.1874598,30.4133302],[-91.1874661,30.4133302],[-91.1874031,30.4129116],[-91.1874207,30.4129097],[-91.1874066,30.4128254],[-91.1873101,30.412836],[-91.187311,30.4128517],[-91.187104,30.4128715],[-91.1870752,30.4128582],[-91.1870235,30.4129287],[-91.187046,30.4129444],[-91.1871677,30.4132805],[-91.1871531,30.4132832],[-91.1871646,30.4133691]]]}},{"type":"Feature","properties":{"fid":112,"osm_id":987639098,"name":null,"building":"yes"},"geometry":{"type":"Polygon","coordinates":[[[-91.1781664,30.4092887],[-91.1780867,30.4092894],[-91.1780861,30.4092406],[-91.1781658,30.4092399],[-91.1781664,30.4092887]]]}},{"type":"Feature","properties":{"fid":113,"osm_id":1074599211,"name":null,"building":"yes"},"geometry":{"type":"Polygon","coordinates":[[[-91.1823928,30.4144532],[-91.1823467,30.4144529],[-91.1823473,30.4143848],[-91.1823933,30.4143851],[-91.1823928,30.4144532]]]}},{"type":"Feature","properties":{"fid":114,"osm_id":1075632535,"name":null,"building":"yes"},"geometry":{"type":"Polygon","coordinates":[[[-91.1821562,30.4135817],[-91.182099,30.4135841],[-91.182095,30.4135134],[-91.1821522,30.413511],[-91.1821562,30.4135817]]]}},{"type":"Feature","properties":{"fid":115,"osm_id":1075632539,"name":null,"building":"yes"},"geometry":{"type":"Polygon","coordinates":[[[-91.1875327,30.4134744],[-91.1875247,30.4134518],[-91.1874782,30.4134641],[-91.1874863,30.4134867],[-91.1875327,30.4134744]]]}},{"type":"Feature","properties":{"fid":116,"osm_id":1148083780,"name":null,"building":"grandstand"},"geometry":{"type":"Polygon","coordinates":[[[-91.1901209,30.4085593],[-91.1902216,30.4079895],[-91.1901194,30.4079761],[-91.1900188,30.4085459],[-91.1901209,30.4085593]]]}},{"type":"Feature","properties":{"fid":117,"osm_id":1148083781,"name":null,"building":"grandstand"},"geometry":{"type":"Polygon","coordinates":[[[-91.1892722,30.4084257],[-91.1893737,30.4078864],[-91.1893057,30.4078769],[-91.1892042,30.4084162],[-91.1892722,30.4084257]]]}},{"type":"Feature","properties":{"fid":118,"osm_id":1238908983,"name":null,"building":"industrial"},"geometry":{"type":"Polygon","coordinates":[[[-91.1817471,30.4111633],[-91.1818245,30.4111416],[-91.1817452,30.41095],[-91.1816703,30.4109733],[-91.1817471,30.4111633]]]}},{"type":"Feature","properties":{"fid":119,"osm_id":1238908984,"name":null,"building":"industrial"},"geometry":{"type":"Polygon","coordinates":[[[-91.1818403,30.4111341],[-91.1820643,30.4110669],[-91.1820229,30.4109641],[-91.1817988,30.4110314],[-91.1818403,30.4111341]]]}},{"type":"Feature","properties":{"fid":120,"osm_id":1238908985,"name":null,"building":"industrial"},"geometry":{"type":"Polygon","coordinates":[[[-91.1821901,30.4111392],[-91.1823538,30.4110899],[-91.1822964,30.4109482],[-91.1821327,30.4109975],[-91.1821901,30.4111392]]]}},{"type":"Feature","properties":{"fid":121,"osm_id":1451467128,"name":"City Sub","building":"yes"},"geometry":{"type":"Polygon","coordinates":[[[-91.1798363,30.4154424],[-91.1798318,30.4153008],[-91.1796936,30.4153049],[-91.1796992,30.4154485],[-91.1798363,30.4154424]]]}},{"type":"Feature","properties":{"fid":122,"osm_id":1484594848,"name":null,"building":"grandstand"},"geometry":{"type":"Polygon","coordinates":[[[-91.1921739,30.409146],[-91.1921027,30.4096353],[-91.1919989,30.409624],[-91.191985,30.4097199],[-91.1918994,30.4097107],[-91.1919995,30.4090213],[-91.1921081,30.409033],[-91.1920929,30.4091372],[-91.1921739,30.409146]]]}},{"type":"Feature","properties":{"fid":123,"osm_id":1484594849,"name":null,"building":"grandstand"},"geometry":{"type":"Polygon","coordinates":[[[-91.1930973,30.4104806],[-91.1930372,30.4108486],[-91.1929971,30.4109031],[-91.1929294,30.4109523],[-91.1928339,30.4109815],[-91.1927799,30.4109815],[-91.1926783,30.4109589],[-91.1924102,30.4108858],[-91.1924349,30.4107982],[-91.1928385,30.4108712],[-91.1929001,30.4108672],[-91.1929324,30.410834],[-91.192954,30.4107038],[-91.192974,30.4107065],[-91.1930064,30.4104687],[-91.1930973,30.4104806]]]}},{"type":"Feature","properties":{"fid":124,"osm_id":1484594850,"name":null,"building":"roof"},"geometry":{"type":"Polygon","coordinates":[[[-91.1931923,30.4108064],[-91.192987,30.4107205],[-91.1929759,30.4108028],[-91.192954,30.4108439],[-91.1929187,30.4108704],[-91.1928865,30.4108857],[-91.1928355,30.4108859],[-91.1927456,30.410868],[-91.1927369,30.4110699],[-91.1929248,30.4111197],[-91.1929713,30.4111262],[-91.1930278,30.4111199],[-91.1930817,30.4111022],[-91.1931326,30.4110579],[-91.1931695,30.4110009],[-91.1931842,30.4109466],[-91.1931923,30.4108064]]]}},{"type":"Feature","properties":{"fid":125,"osm_id":1484594853,"name":null,"building":"grandstand"},"geometry":{"type":"Polygon","coordinates":[[[-91.192637,30.4101315],[-91.1926409,30.4101999],[-91.1925531,30.4102158],[-91.1924868,30.4102431],[-91.1924306,30.4102703],[-91.1924006,30.4102138],[-91.192466,30.4101747],[-91.192523,30.4101474],[-91.192637,30.4101315]]]}},{"type":"Feature","properties":{"fid":126,"osm_id":1550857012,"name":"Our Lady of the Lake Health Interdisciplinary Science Building","building":"university"},"geometry":{"type":"Polygon","coordinates":[[[-91.1787466,30.4097198],[-91.178381,30.4097438],[-91.1783665,30.4095796],[-91.1781173,30.409596],[-91.1781777,30.4102824],[-91.1784262,30.4102661],[-91.1784052,30.4100275],[-91.1787717,30.4100035],[-91.1787466,30.4097198]]]}},{"type":"Feature","properties":{"fid":127,"osm_id":null,"name":"Tiger Stadium — Upper Deck","building":"stadium","placeholder":true},"geometry":{"type":"Polygon","coordinates":[[[-91.1824534,30.4122],[-91.1824759,30.4122969],[-91.1825113,30.4123912],[-91.1825592,30.4124821],[-91.1826192,30.4125687],[-91.1826907,30.4126502],[-91.1827731,30.4127257],[-91.1828655,30.4127946],[-91.182967,30.4128562],[-91.1830767,30.4129099],[-91.1831936,30.4129551],[-91.1833164,30.4129915],[-91.183444,30.4130186],[-91.1835751,30.4130363],[-91.1837086,30.4130444],[-91.1838431,30.4130427],[-91.1839774,30.4130313],[-91.18411,30.4130103],[-91.1842399,30.41298],[-91.1843656,30.4129405],[-91.1844861,30.4128923],[-91.1846,30.4128359],[-91.1847064,30.4127717],[-91.1848043,30.4127005],[-91.1848926,30.4126228],[-91.1849705,30.4125395],[-91.1850373,30.4124513],[-91.1850923,30.4123591],[-91.1851351,30.4122638],[-91.1851651,30.4121663],[-91.1851821,30.4120675],[-91.1851859,30.4119684],[-91.1851766,30.41187],[-91.1851541,30.4117731],[-91.1851187,30.4116788],[-91.1850708,30.4115879],[-91.1850108,30.4115013],[-91.1849393,30.4114198],[-91.1848569,30.4113443],[-91.1847645,30.4112754],[-91.184663,30.4112138],[-91.1845533,30.4111601],[-91.1844364,30.4111149],[-91.1843136,30.4110785],[-91.184186,30.4110514],[-91.1840549,30.4110337],[-91.1839214,30.4110256],[-91.1837869,30.4110273],[-91.1836526,30.4110387],[-91.18352,30.4110597],[-91.1833901,30.41109],[-91.1832644,30.4111295],[-91.1831439,30.4111777],[-91.18303,30.4112341],[-91.1829236,30.4112983],[-91.1828257,30.4113695],[-91.1827374,30.4114472],[-91.1826595,30.4115305],[-91.1825927,30.4116187],[-91.1825377,30.4117109],[-91.1824949,30.4118062],[-91.1824649,30.4119037],[-91.1824479,30.4120025],[-91.1824441,30.4121016],[-91.1824534,30.4122]],[[-91.1826597,30.412175],[-91.1826519,30.4120924],[-91.1826553,30.4120092],[-91.1826699,30.4119263],[-91.1826955,30.4118444],[-91.1827319,30.4117643],[-91.1827787,30.4116869],[-91.1828355,30.4116128],[-91.1829017,30.4115427],[-91.1829768,30.4114774],[-91.1830599,30.4114175],[-91.1831502,30.4113635],[-91.183247,30.411316],[-91.1833492,30.4112755],[-91.183456,30.4112422],[-91.1835662,30.4112166],[-91.1836787,30.4111988],[-91.1837926,30.4111891],[-91.1839067,30.4111876],[-91.18402,30.4111942],[-91.1841312,30.4112089],[-91.1842394,30.4112315],[-91.1843435,30.4112619],[-91.1844426,30.4112998],[-91.1845355,30.4113447],[-91.1846216,30.4113963],[-91.1846999,30.411454],[-91.1847696,30.4115173],[-91.1848302,30.4115856],[-91.184881,30.4116583],[-91.1849215,30.4117345],[-91.1849514,30.4118137],[-91.1849703,30.411895],[-91.1849781,30.4119776],[-91.1849747,30.4120608],[-91.1849601,30.4121437],[-91.1849345,30.4122256],[-91.1848981,30.4123057],[-91.1848513,30.4123831],[-91.1847945,30.4124572],[-91.1847283,30.4125273],[-91.1846532,30.4125926],[-91.1845701,30.4126525],[-91.1844798,30.4127065],[-91.184383,30.412754],[-91.1842808,30.4127945],[-91.184174,30.4128278],[-91.1840638,30.4128534],[-91.1839513,30.4128712],[-91.1838374,30.4128809],[-91.1837233,30.4128824],[-91.18361,30.4128758],[-91.1834988,30.4128611],[-91.1833906,30.4128385],[-91.1832865,30.4128081],[-91.1831874,30.4127702],[-91.1830945,30.4127253],[-91.1830084,30.4126737],[-91.1829301,30.412616],[-91.1828604,30.4125527],[-91.1827998,30.4124844],[-91.182749,30.4124117],[-91.1827085,30.4123355],[-91.1826786,30.4122563],[-91.1826597,30.412175]]]}},{"type":"Feature","properties":{"fid":128,"osm_id":null,"name":"Tiger Stadium — Main Bowl","building":"stadium","placeholder":true},"geometry":{"type":"Polygon","coordinates":[[[-91.1826597,30.412175],[-91.1826786,30.4122563],[-91.1827085,30.4123355],[-91.182749,30.4124117],[-91.1827998,30.4124844],[-91.1828604,30.4125527],[-91.1829301,30.412616],[-91.1830084,30.4126737],[-91.1830945,30.4127253],[-91.1831874,30.4127702],[-91.1832865,30.4128081],[-91.1833906,30.4128385],[-91.1834988,30.4128611],[-91.18361,30.4128758],[-91.1837233,30.4128824],[-91.1838374,30.4128809],[-91.1839513,30.4128712],[-91.1840638,30.4128534],[-91.184174,30.4128278],[-91.1842808,30.4127945],[-91.184383,30.412754],[-91.1844798,30.4127065],[-91.1845701,30.4126525],[-91.1846532,30.4125926],[-91.1847283,30.4125273],[-91.1847945,30.4124572],[-91.1848513,30.4123831],[-91.1848981,30.4123057],[-91.1849345,30.4122256],[-91.1849601,30.4121437],[-91.1849747,30.4120608],[-91.1849781,30.4119776],[-91.1849703,30.411895],[-91.1849514,30.4118137],[-91.1849215,30.4117345],[-91.184881,30.4116583],[-91.1848302,30.4115856],[-91.1847696,30.4115173],[-91.1846999,30.411454],[-91.1846216,30.4113963],[-91.1845355,30.4113447],[-91.1844426,30.4112998],[-91.1843435,30.4112619],[-91.1842394,30.4112315],[-91.1841312,30.4112089],[-91.18402,30.4111942],[-91.1839067,30.4111876],[-91.1837926,30.4111891],[-91.1836787,30.4111988],[-91.1835662,30.4112166],[-91.183456,30.4112422],[-91.1833492,30.4112755],[-91.183247,30.411316],[-91.1831502,30.4113635],[-91.1830599,30.4114175],[-91.1829768,30.4114774],[-91.1829017,30.4115427],[-91.1828355,30.4116128],[-91.1827787,30.4116869],[-91.1827319,30.4117643],[-91.1826955,30.4118444],[-91.1826699,30.4119263],[-91.1826553,30.4120092],[-91.1826519,30.4120924],[-91.1826597,30.412175]],[[-91.1828867,30.4121475],[-91.1828806,30.4120825],[-91.1828836,30.4120169],[-91.1828955,30.4119516],[-91.1829163,30.411887],[-91.1829457,30.4118239],[-91.1829835,30.4117628],[-91.1830293,30.4117044],[-91.1830827,30.4116491],[-91.1831431,30.4115975],[-91.18321,30.4115502],[-91.1832828,30.4115075],[-91.1833606,30.4114699],[-91.1834429,30.4114377],[-91.1835287,30.4114113],[-91.1836172,30.4113909],[-91.1837077,30.4113767],[-91.1837992,30.4113689],[-91.1838909,30.4113674],[-91.1839818,30.4113724],[-91.1840712,30.4113838],[-91.184158,30.4114014],[-91.1842416,30.4114251],[-91.184321,30.4114548],[-91.1843956,30.41149],[-91.1844646,30.4115304],[-91.1845273,30.4115757],[-91.1845832,30.4116255],[-91.1846316,30.4116791],[-91.1846722,30.4117362],[-91.1847046,30.4117962],[-91.1847284,30.4118585],[-91.1847433,30.4119225],[-91.1847494,30.4119875],[-91.1847464,30.4120531],[-91.1847345,30.4121184],[-91.1847137,30.412183],[-91.1846843,30.4122461],[-91.1846465,30.4123072],[-91.1846007,30.4123656],[-91.1845473,30.4124209],[-91.1844869,30.4124725],[-91.18442,30.4125198],[-91.1843472,30.4125625],[-91.1842694,30.4126001],[-91.1841871,30.4126323],[-91.1841013,30.4126587],[-91.1840128,30.4126791],[-91.1839223,30.4126933],[-91.1838308,30.4127011],[-91.1837391,30.4127026],[-91.1836482,30.4126976],[-91.1835588,30.4126862],[-91.183472,30.4126686],[-91.1833884,30.4126449],[-91.183309,30.4126152],[-91.1832344,30.41258],[-91.1831654,30.4125396],[-91.1831027,30.4124943],[-91.1830468,30.4124445],[-91.1829984,30.4123909],[-91.1829578,30.4123338],[-91.1829254,30.4122738],[-91.1829016,30.4122115],[-91.1828867,30.4121475]]]}},{"type":"Feature","properties":{"fid":129,"osm_id":null,"name":"Tiger Stadium — Lower Bowl","building":"stadium","placeholder":true},"geometry":{"type":"Polygon","coordinates":[[[-91.1828867,30.4121475],[-91.1829016,30.4122115],[-91.1829254,30.4122738],[-91.1829578,30.4123338],[-91.1829984,30.4123909],[-91.1830468,30.4124445],[-91.1831027,30.4124943],[-91.1831654,30.4125396],[-91.1832344,30.41258],[-91.183309,30.4126152],[-91.1833884,30.4126449],[-91.183472,30.4126686],[-91.1835588,30.4126862],[-91.1836482,30.4126976],[-91.1837391,30.4127026],[-91.1838308,30.4127011],[-91.1839223,30.4126933],[-91.1840128,30.4126791],[-91.1841013,30.4126587],[-91.1841871,30.4126323],[-91.1842694,30.4126001],[-91.1843472,30.4125625],[-91.18442,30.4125198],[-91.1844869,30.4124725],[-91.1845473,30.4124209],[-91.1846007,30.4123656],[-91.1846465,30.4123072],[-91.1846843,30.4122461],[-91.1847137,30.412183],[-91.1847345,30.4121184],[-91.1847464,30.4120531],[-91.1847494,30.4119875],[-91.1847433,30.4119225],[-91.1847284,30.4118585],[-91.1847046,30.4117962],[-91.1846722,30.4117362],[-91.1846316,30.4116791],[-91.1845832,30.4116255],[-91.1845273,30.4115757],[-91.1844646,30.4115304],[-91.1843956,30.41149],[-91.184321,30.4114548],[-91.1842416,30.4114251],[-91.184158,30.4114014],[-91.1840712,30.4113838],[-91.1839818,30.4113724],[-91.1838909,30.4113674],[-91.1837992,30.4113689],[-91.1837077,30.4113767],[-91.1836172,30.4113909],[-91.1835287,30.4114113],[-91.1834429,30.4114377],[-91.1833606,30.4114699],[-91.1832828,30.4115075],[-91.18321,30.4115502],[-91.1831431,30.4115975],[-91.1830827,30.4116491],[-91.1830293,30.4117044],[-91.1829835,30.4117628],[-91.1829457,30.4118239],[-91.1829163,30.411887],[-91.1828955,30.4119516],[-91.1828836,30.4120169],[-91.1828806,30.4120825],[-91.1828867,30.4121475]],[[-91.1831342,30.4121175],[-91.1831301,30.4120718],[-91.1831326,30.4120257],[-91.1831416,30.4119797],[-91.1831572,30.4119342],[-91.1831791,30.4118897],[-91.1832071,30.4118466],[-91.1832409,30.4118053],[-91.1832803,30.4117663],[-91.1833248,30.4117298],[-91.1833741,30.4116962],[-91.1834276,30.4116659],[-91.1834848,30.4116392],[-91.1835452,30.4116163],[-91.1836083,30.4115974],[-91.1836733,30.4115827],[-91.1837396,30.4115724],[-91.1838067,30.4115666],[-91.1838739,30.4115652],[-91.1839405,30.4115684],[-91.1840059,30.4115761],[-91.1840694,30.4115881],[-91.1841305,30.4116045],[-91.1841886,30.4116251],[-91.1842431,30.4116496],[-91.1842934,30.4116778],[-91.1843392,30.4117094],[-91.1843799,30.4117442],[-91.1844151,30.4117817],[-91.1844446,30.4118218],[-91.184468,30.4118638],[-91.1844851,30.4119075],[-91.1844958,30.4119525],[-91.1844999,30.4119982],[-91.1844974,30.4120443],[-91.1844884,30.4120903],[-91.1844728,30.4121358],[-91.1844509,30.4121803],[-91.1844229,30.4122234],[-91.1843891,30.4122647],[-91.1843497,30.4123037],[-91.1843052,30.4123402],[-91.1842559,30.4123738],[-91.1842024,30.4124041],[-91.1841452,30.4124308],[-91.1840848,30.4124537],[-91.1840217,30.4124726],[-91.1839567,30.4124873],[-91.1838904,30.4124976],[-91.1838233,30.4125034],[-91.1837561,30.4125048],[-91.1836895,30.4125016],[-91.1836241,30.4124939],[-91.1835606,30.4124819],[-91.1834995,30.4124655],[-91.1834414,30.4124449],[-91.1833869,30.4124204],[-91.1833366,30.4123922],[-91.1832908,30.4123606],[-91.1832501,30.4123258],[-91.1832149,30.4122883],[-91.1831854,30.4122482],[-91.183162,30.4122062],[-91.1831449,30.4121625],[-91.1831342,30.4121175]]]}}]}