{
"type": "FeatureCollection",
"name": "tours",
"crs": { "type": "name", "properties": { "name": "urn:ogc:def:crs:OGC:1.3:CRS84" } },
"features": [
{ "type": "Feature", "properties": { "fid": 1, "name": "Lot 414 · River Road Arrival", "tour_group": "mainTour", "order_num": 1, "description": null }, "geometry": { "type": "Polygon", "coordinates": [ [ [ -91.194851, 30.409642 ], [ -91.194691, 30.409642 ], [ -91.194691, 30.409782 ], [ -91.194851, 30.409782 ], [ -91.194851, 30.409642 ] ] ] } },
{ "type": "Feature", "properties": { "fid": 2, "name": "Board the Charter Bus", "tour_group": "mainTour", "order_num": 2, "description": null }, "geometry": { "type": "Polygon", "coordinates": [ [ [ -91.195511, 30.410295 ], [ -91.195351, 30.410295 ], [ -91.195351, 30.410435 ], [ -91.195511, 30.410435 ], [ -91.195511, 30.410295 ] ] ] } },
{ "type": "Feature", "properties": { "fid": 3, "name": "Football Operations Facility", "tour_group": "mainTour", "order_num": 3, "description": null }, "geometry": { "type": "Polygon", "coordinates": [ [ [ -91.18864, 30.41049 ], [ -91.18848, 30.41049 ], [ -91.18848, 30.41063 ], [ -91.18864, 30.41063 ], [ -91.18864, 30.41049 ] ] ] } },
{ "type": "Feature", "properties": { "fid": 4, "name": "Tiger Tailgate · Indoors", "tour_group": "mainTour", "order_num": 4, "description": null }, "geometry": { "type": "Polygon", "coordinates": [ [ [ -91.18864, 30.41049 ], [ -91.18848, 30.41049 ], [ -91.18848, 30.41063 ], [ -91.18864, 30.41063 ], [ -91.18864, 30.41049 ] ] ] } },
{ "type": "Feature", "properties": { "fid": 5, "name": "Registration", "tour_group": "mainTour", "order_num": 5, "description": null }, "geometry": { "type": "Polygon", "coordinates": [ [ [ -91.18864, 30.41049 ], [ -91.18848, 30.41049 ], [ -91.18848, 30.41063 ], [ -91.18864, 30.41063 ], [ -91.18864, 30.41049 ] ] ] } },
{ "type": "Feature", "properties": { "fid": 6, "name": "Tiger Walk · Victory Hill", "tour_group": "mainTour", "order_num": 6, "description": null }, "geometry": { "type": "Polygon", "coordinates": [ [ [ -91.18443, 30.41313 ], [ -91.18427, 30.41313 ], [ -91.18427, 30.41327 ], [ -91.18443, 30.41327 ], [ -91.18443, 30.41313 ] ] ] } },
{ "type": "Feature", "properties": { "fid": 7, "name": "Lawton Room", "tour_group": "mainTour", "order_num": 7, "description": null }, "geometry": { "type": "Polygon", "coordinates": [ [ [ -91.18456, 30.41261 ], [ -91.18440, 30.41261 ], [ -91.18440, 30.41275 ], [ -91.18456, 30.41275 ], [ -91.18456, 30.41261 ] ] ] } },
{ "type": "Feature", "properties": { "fid": 8, "name": "Field Level Warmups", "tour_group": "mainTour", "order_num": 8, "description": null }, "geometry": { "type": "Polygon", "coordinates": [ [ [ -91.183896, 30.411965 ], [ -91.183736, 30.411965 ], [ -91.183736, 30.412105 ], [ -91.183896, 30.412105 ], [ -91.183896, 30.411965 ] ] ] } },
{ "type": "Feature", "properties": { "fid": 9, "name": "Kickoff · Death Valley", "tour_group": "mainTour", "order_num": 9, "description": null, "cam3d": { "bearing": 200, "pitch": 65, "zoom": 17.3 } }, "geometry": { "type": "Polygon", "coordinates": [ [ [ -91.183896, 30.411965 ], [ -91.183736, 30.411965 ], [ -91.183736, 30.412105 ], [ -91.183896, 30.412105 ], [ -91.183896, 30.411965 ] ] ] } },
{ "type": "Feature", "properties": { "fid": 10, "name": "Postgame · Nicholson Gateway", "tour_group": "mainTour", "order_num": 10, "description": null }, "geometry": { "type": "Polygon", "coordinates": [ [ [ -91.18742, 30.41266 ], [ -91.18726, 30.41266 ], [ -91.18726, 30.41280 ], [ -91.18742, 30.41280 ], [ -91.18742, 30.41266 ] ] ] } }
]
}
